{
"type": "FeatureCollection",
"name": "adur",
"crs": { "type": "name", "properties": { "name": "urn:ogc:def:crs:OGC:1.3:CRS84" } },
"features": [
{ "type": "Feature", "properties": { "lsoa21_code": "E01031338", "lsoa21_name": "Adur 002A" }, "geometry": { "type": "MultiPolygon", "coordinates": [ [ [ [ -0.252614508620435, 50.845041007087602 ], [ -0.249388962599881, 50.842423324644699 ], [ -0.248562020148044, 50.842292181340802 ], [ -0.248402265207143, 50.8415918786649 ], [ -0.24926994094532, 50.841391004268402 ], [ -0.249798068927305, 50.841589349581497 ], [ -0.250684020728398, 50.8414158124138 ], [ -0.254682592754504, 50.8417985934516 ], [ -0.255387613376805, 50.841826340213302 ], [ -0.257959891650439, 50.8417363185604 ], [ -0.258664119453568, 50.841640218029397 ], [ -0.261283107895484, 50.840751479935903 ], [ -0.262448667833474, 50.841249900321401 ], [ -0.262251823791002, 50.843137128478098 ], [ -0.259896239934812, 50.843120120134799 ], [ -0.25970675991672, 50.844456315851197 ], [ -0.258843099448493, 50.844560081398903 ], [ -0.258725797465186, 50.845216197647503 ], [ -0.257516679767484, 50.844805495682699 ], [ -0.255907571357811, 50.844833213771402 ], [ -0.25514426492785, 50.844696484256602 ], [ -0.254818012258055, 50.845275071051297 ], [ -0.252813880132871, 50.8451549876198 ], [ -0.252614508620435, 50.845041007087602 ] ] ] ] } },
{ "type": "Feature", "properties": { "lsoa21_code": "E01031339", "lsoa21_name": "Adur 002B" }, "geometry": { "type": "MultiPolygon", "coordinates": [ [ [ [ -0.272794854631613, 50.844481435088603 ], [ -0.272223137860799, 50.844454164372102 ], [ -0.271166555596578, 50.844591627889301 ], [ -0.270795684237749, 50.844296534187698 ], [ -0.271187101302726, 50.843846565775003 ], [ -0.272210923123464, 50.843840914273798 ], [ -0.271903913566001, 50.842878041724802 ], [ -0.270778316410432, 50.841899460562999 ], [ -0.269068880298755, 50.842084775653902 ], [ -0.268288664763067, 50.841985751354997 ], [ -0.268779533617401, 50.8402237003734 ], [ -0.270948179260465, 50.840587403899796 ], [ -0.270813454101995, 50.841312703711402 ], [ -0.27202615684093, 50.840301449743798 ], [ -0.273019100665896, 50.840593438066001 ], [ -0.273927252095115, 50.840250390613399 ], [ -0.273563654900456, 50.8411919593714 ], [ -0.273397002830036, 50.841859704507499 ], [ -0.277734390695132, 50.842632785138797 ], [ -0.277786800001644, 50.842729778475899 ], [ -0.27889127810516, 50.843356673816601 ], [ -0.27882911449934, 50.843625594189298 ], [ -0.278172825607928, 50.843371871125903 ], [ -0.277830151598157, 50.843925106133298 ], [ -0.277981011671557, 50.8452673973486 ], [ -0.278612974820047, 50.8452814311174 ], [ -0.278659705774441, 50.845790461167198 ], [ -0.273530656014313, 50.846211398673901 ], [ -0.273855282509282, 50.845201990310997 ], [ -0.272794854631613, 50.844481435088603 ] ] ] ] } },
{ "type": "Feature", "properties": { "lsoa21_code": "E01031340", "lsoa21_name": "Adur 002C" }, "geometry": { "type": "MultiPolygon", "coordinates": [ [ [ [ -0.276062363797778, 50.863425837945101 ], [ -0.27570333197019, 50.861698956402897 ], [ -0.275192183574746, 50.861242358502899 ], [ -0.270071366185349, 50.860003567633797 ], [ -0.267209534470421, 50.857197625649 ], [ -0.265292859678415, 50.854440239688799 ], [ -0.264692719806757, 50.852473786376201 ], [ -0.264863078556235, 50.850334626715103 ], [ -0.263761833216475, 50.8491207316927 ], [ -0.262799176981491, 50.8485997594547 ], [ -0.261666910221493, 50.850194966826699 ], [ -0.259192028706035, 50.849248425608998 ], [ -0.255891179394198, 50.847405813560002 ], [ -0.252813880132871, 50.8451549876198 ], [ -0.254818012258055, 50.845275071051297 ], [ -0.25514426492785, 50.844696484256602 ], [ -0.255907571357811, 50.844833213771402 ], [ -0.257516679767484, 50.844805495682699 ], [ -0.258725797465186, 50.845216197647503 ], [ -0.258843099448493, 50.844560081398903 ], [ -0.25970675991672, 50.844456315851197 ], [ -0.259896239934812, 50.843120120134799 ], [ -0.262251823791002, 50.843137128478098 ], [ -0.262448667833474, 50.841249900321401 ], [ -0.261283107895484, 50.840751479935903 ], [ -0.261556504652329, 50.840655038016202 ], [ -0.263611073022678, 50.839910075663397 ], [ -0.265114445513998, 50.839546827619301 ], [ -0.270032325024739, 50.8397739075711 ], [ -0.273969654506308, 50.840140911484802 ], [ -0.27395402737464, 50.840181042764598 ], [ -0.273927252095115, 50.840250390613399 ], [ -0.273019100665896, 50.840593438066001 ], [ -0.27202615684093, 50.840301449743798 ], [ -0.270813454101995, 50.841312703711402 ], [ -0.270948179260465, 50.840587403899796 ], [ -0.268779533617401, 50.8402237003734 ], [ -0.268288664763067, 50.841985751354997 ], [ -0.269068880298755, 50.842084775653902 ], [ -0.270778316410432, 50.841899460562999 ], [ -0.271903913566001, 50.842878041724802 ], [ -0.272210923123464, 50.843840914273798 ], [ -0.271187101302726, 50.843846565775003 ], [ -0.270795684237749, 50.844296534187698 ], [ -0.271166555596578, 50.844591627889301 ], [ -0.272223137860799, 50.844454164372102 ], [ -0.272794854631613, 50.844481435088603 ], [ -0.273855282509282, 50.845201990310997 ], [ -0.273530656014313, 50.846211398673901 ], [ -0.278659705774441, 50.845790461167198 ], [ -0.278612974820047, 50.8452814311174 ], [ -0.277981011671557, 50.8452673973486 ], [ -0.277830151598157, 50.843925106133298 ], [ -0.278172825607928, 50.843371871125903 ], [ -0.27882911449934, 50.843625594189298 ], [ -0.27889127810516, 50.843356673816601 ], [ -0.277786800001644, 50.842729778475899 ], [ -0.277734390695132, 50.842632785138797 ], [ -0.278257525985076, 50.842726011693799 ], [ -0.279103231616504, 50.842228190327198 ], [ -0.283686292386491, 50.843462332948498 ], [ -0.284421350712095, 50.8428048870162 ], [ -0.285240323688472, 50.842748212250498 ], [ -0.286244732907501, 50.840957469686998 ], [ -0.286878870104765, 50.840970367789303 ], [ -0.28669306251101, 50.840472157748898 ], [ -0.287662597335174, 50.840552969923898 ], [ -0.287252804205953, 50.841168089854001 ], [ -0.287074970376396, 50.843901740979597 ], [ -0.287350423047764, 50.846199411800001 ], [ -0.288964098215879, 50.847159132633898 ], [ -0.291203883189236, 50.847588973049398 ], [ -0.292181236152346, 50.8480638438905 ], [ -0.292135887513002, 50.848996374035501 ], [ -0.290289423699602, 50.849835716626998 ], [ -0.290337289655498, 50.851014275957901 ], [ -0.293148353701501, 50.853323805606998 ], [ -0.295347441022238, 50.854070910205202 ], [ -0.295027659635818, 50.854814485988101 ], [ -0.293046480871185, 50.855998734924903 ], [ -0.292666536997554, 50.8584630196492 ], [ -0.29417977595706, 50.859714260408403 ], [ -0.296004955372892, 50.860514342292298 ], [ -0.296303171729884, 50.860586127657498 ], [ -0.298585004320951, 50.861135370075203 ], [ -0.301019649191973, 50.860793107607002 ], [ -0.301588001203407, 50.861005436139102 ], [ -0.301791694791417, 50.861617966937303 ], [ -0.301106566432269, 50.8642052705504 ], [ -0.299878947583206, 50.864670887020303 ], [ -0.299460471096353, 50.864197169061903 ], [ -0.296357763564574, 50.864242711803001 ], [ -0.292506107613915, 50.8628950622834 ], [ -0.29093615636777, 50.862740723996303 ], [ -0.290388228216879, 50.863845176800901 ], [ -0.287949976290766, 50.864152100563899 ], [ -0.280044789704887, 50.863248996383099 ], [ -0.276062363797778, 50.863425837945101 ] ] ] ] } },
{ "type": "Feature", "properties": { "lsoa21_code": "E01031341", "lsoa21_name": "Adur 008A" }, "geometry": { "type": "MultiPolygon", "coordinates": [ [ [ [ -0.322446879564913, 50.828372989466303 ], [ -0.322686122990467, 50.827271597987703 ], [ -0.323018741772674, 50.827202450116999 ], [ -0.323440997365282, 50.827848250901198 ], [ -0.324180430429916, 50.827901005778699 ], [ -0.324439109433627, 50.827725377899803 ], [ -0.324016919331688, 50.827484069674398 ], [ -0.325396750754053, 50.827165058812703 ], [ -0.325422684055298, 50.826823915652596 ], [ -0.323889729852969, 50.827052968413703 ], [ -0.323491971648726, 50.825917557370403 ], [ -0.32382715149158, 50.825261073098602 ], [ -0.325024570814341, 50.825355444952997 ], [ -0.325936928962621, 50.826000091792203 ], [ -0.32629918289195, 50.825598837399603 ], [ -0.326903957499149, 50.825807697460597 ], [ -0.32879804809627, 50.825285629958003 ], [ -0.329102458901768, 50.824357069882801 ], [ -0.327971257109733, 50.824470108339902 ], [ -0.327873619491977, 50.823223364795702 ], [ -0.329313699040831, 50.823607729684603 ], [ -0.329649378635935, 50.824110668300897 ], [ -0.330432057141029, 50.824228781360397 ], [ -0.33210664261286, 50.823687135872298 ], [ -0.333233899764209, 50.822762953500401 ], [ -0.335998108405318, 50.8232067418854 ], [ -0.33518781814399, 50.824992027381299 ], [ -0.334641286896996, 50.8261421407596 ], [ -0.333754783096273, 50.827897963355397 ], [ -0.333674061959627, 50.8280772860223 ], [ -0.333091324085437, 50.828078036380802 ], [ -0.332961428774, 50.828385023662001 ], [ -0.331519956372052, 50.828224363951101 ], [ -0.329861916721725, 50.828097880821701 ], [ -0.328403798094824, 50.8273862890209 ], [ -0.326555446768029, 50.8274794871339 ], [ -0.326357544165597, 50.8281719897344 ], [ -0.324987714187536, 50.827903340217603 ], [ -0.325004169686012, 50.828551918163697 ], [ -0.324405796696348, 50.828704161707201 ], [ -0.322446879564913, 50.828372989466303 ] ] ] ] } },
{ "type": "Feature", "properties": { "lsoa21_code": "E01031342", "lsoa21_name": "Adur 008B" }, "geometry": { "type": "MultiPolygon", "coordinates": [ [ [ [ -0.323440997365282, 50.827848250901198 ], [ -0.323018741772674, 50.827202450116999 ], [ -0.322686122990467, 50.827271597987703 ], [ -0.322740105894364, 50.827120397789798 ], [ -0.323048404947535, 50.826012210651498 ], [ -0.322489243958703, 50.825487375994904 ], [ -0.322563034931878, 50.824934956350198 ], [ -0.323040657023123, 50.824981381956597 ], [ -0.323637916250403, 50.8244362922185 ], [ -0.324441963315153, 50.8229814405585 ], [ -0.325561822112711, 50.821179645834398 ], [ -0.324634980138777, 50.821091241450901 ], [ -0.3240657510994, 50.820053668938698 ], [ -0.32405555267177, 50.819476024538801 ], [ -0.325541371999894, 50.819262303625699 ], [ -0.328071461382689, 50.8188983268534 ], [ -0.328124176213479, 50.8188907421724 ], [ -0.328649898975012, 50.8187200105599 ], [ -0.332544798570081, 50.817455002126501 ], [ -0.332970136541078, 50.817709108715697 ], [ -0.333217488721843, 50.817976943579502 ], [ -0.334183600408759, 50.819072569723602 ], [ -0.337196571094659, 50.820974451727103 ], [ -0.335998108405318, 50.8232067418854 ], [ -0.333233899764209, 50.822762953500401 ], [ -0.33210664261286, 50.823687135872298 ], [ -0.330432057141029, 50.824228781360397 ], [ -0.329649378635935, 50.824110668300897 ], [ -0.329313699040831, 50.823607729684603 ], [ -0.327873619491977, 50.823223364795702 ], [ -0.327971257109733, 50.824470108339902 ], [ -0.329102458901768, 50.824357069882801 ], [ -0.32879804809627, 50.825285629958003 ], [ -0.326903957499149, 50.825807697460597 ], [ -0.32629918289195, 50.825598837399603 ], [ -0.325936928962621, 50.826000091792203 ], [ -0.325024570814341, 50.825355444952997 ], [ -0.32382715149158, 50.825261073098602 ], [ -0.323491971648726, 50.825917557370403 ], [ -0.323889729852969, 50.827052968413703 ], [ -0.325422684055298, 50.826823915652596 ], [ -0.325396750754053, 50.827165058812703 ], [ -0.324016919331688, 50.827484069674398 ], [ -0.324439109433627, 50.827725377899803 ], [ -0.324180430429916, 50.827901005778699 ], [ -0.323440997365282, 50.827848250901198 ] ] ] ] } },
{ "type": "Feature", "properties": { "lsoa21_code": "E01031343", "lsoa21_name": "Adur 008C" }, "geometry": { "type": "MultiPolygon", "coordinates": [ [ [ [ -0.331614297963597, 50.832435395505598 ], [ -0.331115642838116, 50.831950360043301 ], [ -0.329720511689672, 50.832243377975097 ], [ -0.32984064743575, 50.832022882449102 ], [ -0.32924056897351, 50.831826630810397 ], [ -0.329628353658558, 50.830921917211299 ], [ -0.328575068059532, 50.830855868933497 ], [ -0.327883814608473, 50.830812473873898 ], [ -0.327362486689311, 50.8320996637609 ], [ -0.326819499867565, 50.831613885745703 ], [ -0.324553320233075, 50.831543570459601 ], [ -0.324752490723815, 50.830854640324901 ], [ -0.324897874193222, 50.830351717214398 ], [ -0.325331358018883, 50.8288522252126 ], [ -0.324405796696348, 50.828704161707201 ], [ -0.325004169686012, 50.828551918163697 ], [ -0.324987714187536, 50.827903340217603 ], [ -0.326357544165597, 50.8281719897344 ], [ -0.326555446768029, 50.8274794871339 ], [ -0.328403798094824, 50.8273862890209 ], [ -0.329861916721725, 50.828097880821701 ], [ -0.331519956372052, 50.828224363951101 ], [ -0.332961428774, 50.828385023662001 ], [ -0.333091324085437, 50.828078036380802 ], [ -0.333674061959627, 50.8280772860223 ], [ -0.333632386513738, 50.828173415239398 ], [ -0.333306708147752, 50.829003053574802 ], [ -0.332424431758835, 50.830762184064803 ], [ -0.331614297963597, 50.832435395505598 ] ] ] ] } },
{ "type": "Feature", "properties": { "lsoa21_code": "E01031344", "lsoa21_name": "Adur 006A" }, "geometry": { "type": "MultiPolygon", "coordinates": [ [ [ [ -0.334109949537438, 50.839598299884798 ], [ -0.333520314412027, 50.8389964236015 ], [ -0.332690973592591, 50.839231865913902 ], [ -0.328669730062109, 50.838287722105697 ], [ -0.328869859602039, 50.837789023042397 ], [ -0.329134124642058, 50.8371308447242 ], [ -0.329332605027507, 50.836738855537597 ], [ -0.33008719203831, 50.835182862153502 ], [ -0.333566567417936, 50.835287731136297 ], [ -0.334841205858657, 50.833403708195597 ], [ -0.334095912673744, 50.832726279560703 ], [ -0.335978092332633, 50.833267832822301 ], [ -0.336241752927405, 50.832966976263599 ], [ -0.337459328296826, 50.833405053013998 ], [ -0.338213852569333, 50.833622303891801 ], [ -0.338045492713013, 50.834109189888103 ], [ -0.337515129226712, 50.834878223929501 ], [ -0.33764643968375, 50.834923406105403 ], [ -0.338158055530518, 50.835048783473297 ], [ -0.338639401536045, 50.835236410858599 ], [ -0.338324765893685, 50.836679267096798 ], [ -0.338001293639917, 50.837705747794899 ], [ -0.336188018644903, 50.837590319439997 ], [ -0.335893960657569, 50.838603869434102 ], [ -0.334517551543288, 50.839776797644603 ], [ -0.334109949537438, 50.839598299884798 ] ] ] ] } },
{ "type": "Feature", "properties": { "lsoa21_code": "E01031345", "lsoa21_name": "Adur 003A" }, "geometry": { "type": "MultiPolygon", "coordinates": [ [ [ [ -0.328004755196969, 50.839843210030899 ], [ -0.328669730062109, 50.838287722105697 ], [ -0.332690973592591, 50.839231865913902 ], [ -0.333520314412027, 50.8389964236015 ], [ -0.334109949537438, 50.839598299884798 ], [ -0.334517551543288, 50.839776797644603 ], [ -0.335893960657569, 50.838603869434102 ], [ -0.336188018644903, 50.837590319439997 ], [ -0.338001293639917, 50.837705747794899 ], [ -0.34275945142535, 50.837678164686601 ], [ -0.342037040029788, 50.840516011534397 ], [ -0.342456531049737, 50.842577481663398 ], [ -0.343977271271105, 50.845216480693402 ], [ -0.344131727641541, 50.848553411300401 ], [ -0.345073501011216, 50.850556114460502 ], [ -0.345181101993224, 50.853136868171397 ], [ -0.345900621633586, 50.855087854815302 ], [ -0.343581151240825, 50.858599216208702 ], [ -0.343490045310577, 50.859614079133301 ], [ -0.341436670836826, 50.8594261636498 ], [ -0.339474032861058, 50.858306044868698 ], [ -0.337750167650906, 50.855274254778401 ], [ -0.333380930629785, 50.851720837161402 ], [ -0.329371687469823, 50.849983440884102 ], [ -0.329954336143089, 50.849455753268202 ], [ -0.327087112915895, 50.847003655187798 ], [ -0.326391044689177, 50.845899157129097 ], [ -0.327166984575919, 50.844173741201203 ], [ -0.327479161531059, 50.8417451800984 ], [ -0.327557979998075, 50.841178823742297 ], [ -0.328004755196969, 50.839843210030899 ] ] ] ] } },
{ "type": "Feature", "properties": { "lsoa21_code": "E01031346", "lsoa21_name": "Adur 006B" }, "geometry": { "type": "MultiPolygon", "coordinates": [ [ [ [ -0.33008719203831, 50.835182862153502 ], [ -0.331614297963597, 50.832435395505598 ], [ -0.332424431758835, 50.830762184064803 ], [ -0.333306708147752, 50.829003053574802 ], [ -0.333592354188574, 50.829233818087701 ], [ -0.335315459357338, 50.829312200201699 ], [ -0.336819378100789, 50.829557035241301 ], [ -0.336620631775433, 50.829954637613703 ], [ -0.337717771265666, 50.830561604034799 ], [ -0.338238187855839, 50.830415070248698 ], [ -0.33837017206387, 50.829985738015303 ], [ -0.338814620424776, 50.830065912088202 ], [ -0.338624778220888, 50.830488305577099 ], [ -0.338968230478251, 50.830566285937799 ], [ -0.339467821087814, 50.830591418586998 ], [ -0.341192542483639, 50.831685152239203 ], [ -0.340609426343473, 50.832427053599602 ], [ -0.33965323154704, 50.834280877594601 ], [ -0.338045492713013, 50.834109189888103 ], [ -0.338213852569333, 50.833622303891801 ], [ -0.337459328296826, 50.833405053013998 ], [ -0.336241752927405, 50.832966976263599 ], [ -0.335978092332633, 50.833267832822301 ], [ -0.334095912673744, 50.832726279560703 ], [ -0.334841205858657, 50.833403708195597 ], [ -0.333566567417936, 50.835287731136297 ], [ -0.33008719203831, 50.835182862153502 ] ] ] ] } },
{ "type": "Feature", "properties": { "lsoa21_code": "E01031347", "lsoa21_name": "Adur 004A" }, "geometry": { "type": "MultiPolygon", "coordinates": [ [ [ [ -0.229706405081394, 50.833821072958997 ], [ -0.229145967028911, 50.833283720288499 ], [ -0.226093227450332, 50.833617188978401 ], [ -0.225196489592386, 50.833708097915 ], [ -0.224559060658972, 50.833431864899801 ], [ -0.2256782561768, 50.8324363260475 ], [ -0.225729756034432, 50.831759738755103 ], [ -0.225234580053431, 50.831922996939497 ], [ -0.223985335100298, 50.829888154541003 ], [ -0.222408071093599, 50.829694582498199 ], [ -0.222859256352726, 50.828658209577497 ], [ -0.22922034991128, 50.828895622136699 ], [ -0.22921913178486, 50.828685425312202 ], [ -0.230231507101978, 50.828769948731399 ], [ -0.237163518313617, 50.828740300263597 ], [ -0.237941552177869, 50.8284558402637 ], [ -0.237932865758914, 50.828134696266297 ], [ -0.23794398892338, 50.827981173879003 ], [ -0.238036231826871, 50.827993169558603 ], [ -0.238108266880884, 50.828905959829399 ], [ -0.237399127034206, 50.8290465692764 ], [ -0.237122951890272, 50.830358979437499 ], [ -0.237710172792089, 50.830530016342401 ], [ -0.237848687845509, 50.831226007216898 ], [ -0.239065389703827, 50.831264603146202 ], [ -0.238673452019704, 50.832276840005001 ], [ -0.235602976943451, 50.832631129305099 ], [ -0.234942921798827, 50.833611951673603 ], [ -0.235187921819979, 50.834281368316297 ], [ -0.234596081260278, 50.834757937879097 ], [ -0.234347935324413, 50.836674018951399 ], [ -0.232913865546273, 50.835944716549903 ], [ -0.228966241859435, 50.835626464185196 ], [ -0.228548223737954, 50.834351175584999 ], [ -0.229706405081394, 50.833821072958997 ] ] ] ] } },
{ "type": "Feature", "properties": { "lsoa21_code": "E01031348", "lsoa21_name": "Adur 004B" }, "geometry": { "type": "MultiPolygon", "coordinates": [ [ [ [ -0.226644760622193, 50.8363843590787 ], [ -0.222354643622603, 50.835584485875501 ], [ -0.219751713618238, 50.835562804426402 ], [ -0.219407365132317, 50.835177399581802 ], [ -0.218252870965032, 50.833904454268897 ], [ -0.218047860208071, 50.833665855211301 ], [ -0.217568762616015, 50.833008402788899 ], [ -0.216707075171951, 50.832960959291697 ], [ -0.216562548928976, 50.830759828481497 ], [ -0.215294583967121, 50.830369522234498 ], [ -0.216045785788355, 50.827584759156998 ], [ -0.22921913178486, 50.828685425312202 ], [ -0.22922034991128, 50.828895622136699 ], [ -0.222859256352726, 50.828658209577497 ], [ -0.222408071093599, 50.829694582498199 ], [ -0.223985335100298, 50.829888154541003 ], [ -0.225234580053431, 50.831922996939497 ], [ -0.225729756034432, 50.831759738755103 ], [ -0.2256782561768, 50.8324363260475 ], [ -0.224559060658972, 50.833431864899801 ], [ -0.225196489592386, 50.833708097915 ], [ -0.226093227450332, 50.833617188978401 ], [ -0.22650226052401, 50.834423119361801 ], [ -0.227073849844927, 50.8344387631983 ], [ -0.226753029440021, 50.835901177088303 ], [ -0.227630102863903, 50.836203663021301 ], [ -0.227607147334452, 50.8364609941517 ], [ -0.226644760622193, 50.8363843590787 ] ] ] ] } },
{ "type": "Feature", "properties": { "lsoa21_code": "E01031349", "lsoa21_name": "Adur 001A" }, "geometry": { "type": "MultiPolygon", "coordinates": [ [ [ [ -0.221471851815018, 50.8374897790491 ], [ -0.219989032217621, 50.835847238236497 ], [ -0.219751713618238, 50.835562804426402 ], [ -0.222354643622603, 50.835584485875501 ], [ -0.226644760622193, 50.8363843590787 ], [ -0.227607147334452, 50.8364609941517 ], [ -0.227630102863903, 50.836203663021301 ], [ -0.226753029440021, 50.835901177088303 ], [ -0.227073849844927, 50.8344387631983 ], [ -0.22650226052401, 50.834423119361801 ], [ -0.226093227450332, 50.833617188978401 ], [ -0.229145967028911, 50.833283720288499 ], [ -0.229706405081394, 50.833821072958997 ], [ -0.228548223737954, 50.834351175584999 ], [ -0.228966241859435, 50.835626464185196 ], [ -0.232913865546273, 50.835944716549903 ], [ -0.234347935324413, 50.836674018951399 ], [ -0.2343473460581, 50.836760769542401 ], [ -0.234344119687279, 50.837212855822699 ], [ -0.234038626401294, 50.838521903047798 ], [ -0.231895122918047, 50.839851005790898 ], [ -0.23184237825926, 50.839836923618499 ], [ -0.229173695007877, 50.8395039962802 ], [ -0.228499898732871, 50.839437789032601 ], [ -0.225349400344442, 50.839196793452302 ], [ -0.222907140999864, 50.839089580611002 ], [ -0.221471851815018, 50.8374897790491 ] ] ] ] } },
{ "type": "Feature", "properties": { "lsoa21_code": "E01031350", "lsoa21_name": "Adur 001B" }, "geometry": { "type": "MultiPolygon", "coordinates": [ [ [ [ -0.229842074282722, 50.847115867674901 ], [ -0.22932457919264, 50.8457342413991 ], [ -0.228508571235573, 50.845713776843198 ], [ -0.228100461689141, 50.845167151465603 ], [ -0.227867395239719, 50.844799371703999 ], [ -0.225926271854352, 50.842879771371599 ], [ -0.225310514493402, 50.841832261262603 ], [ -0.223313217902254, 50.839483189705398 ], [ -0.222907140999864, 50.839089580611002 ], [ -0.225349400344442, 50.839196793452302 ], [ -0.228499898732871, 50.839437789032601 ], [ -0.229173695007877, 50.8395039962802 ], [ -0.23184237825926, 50.839836923618499 ], [ -0.23128920605754, 50.840055033795103 ], [ -0.228961241960572, 50.840952302242897 ], [ -0.22920788816931, 50.841239030820901 ], [ -0.228456374873478, 50.841932685665 ], [ -0.228476331319099, 50.842449242045198 ], [ -0.231000453343898, 50.842748921103698 ], [ -0.231254648886994, 50.8430731224082 ], [ -0.231515739566345, 50.843080252633399 ], [ -0.232389294793796, 50.842898604757401 ], [ -0.233689350223011, 50.843759731987902 ], [ -0.233909678468503, 50.846641906320897 ], [ -0.233423263398423, 50.846279424623098 ], [ -0.230158437721286, 50.847553201809802 ], [ -0.229842074282722, 50.847115867674901 ] ] ] ] } },
{ "type": "Feature", "properties": { "lsoa21_code": "E01031351", "lsoa21_name": "Adur 001C" }, "geometry": { "type": "MultiPolygon", "coordinates": [ [ [ [ -0.23975310453851, 50.861952309280902 ], [ -0.238993723745877, 50.858722134651302 ], [ -0.23638189118222, 50.857521653442603 ], [ -0.235996921008447, 50.856600185120499 ], [ -0.235854788028439, 50.853809477059102 ], [ -0.235382483874168, 50.8524119345497 ], [ -0.232734637244063, 50.849822068539197 ], [ -0.232142024056169, 50.8492974871304 ], [ -0.23061633340453, 50.848317854494603 ], [ -0.230158437721286, 50.847553201809802 ], [ -0.233423263398423, 50.846279424623098 ], [ -0.233909678468503, 50.846641906320897 ], [ -0.233689350223011, 50.843759731987902 ], [ -0.234334190437498, 50.842866230073 ], [ -0.234118376812124, 50.8425980830567 ], [ -0.234674702199904, 50.842515542362499 ], [ -0.235605239289241, 50.843492875255002 ], [ -0.236349213779855, 50.8459291327286 ], [ -0.236751248870095, 50.845485904675002 ], [ -0.237328581261951, 50.845475782052397 ], [ -0.239415135393795, 50.845067086486402 ], [ -0.238759247439318, 50.844354323335203 ], [ -0.239357704335748, 50.844255501782698 ], [ -0.239411223272782, 50.843892085396597 ], [ -0.23992128459564, 50.843926756810298 ], [ -0.239955123189796, 50.843588323889698 ], [ -0.241315589058621, 50.8431877068871 ], [ -0.24103178473652, 50.842136550144701 ], [ -0.238420730045617, 50.841955289928997 ], [ -0.237839262307112, 50.841503103203301 ], [ -0.238430086839531, 50.841229986865301 ], [ -0.237707736450859, 50.840691594020498 ], [ -0.23840542877683, 50.840772048124897 ], [ -0.243583456260291, 50.841069338345399 ], [ -0.244313233235564, 50.8411123955199 ], [ -0.247309431537552, 50.841225651008799 ], [ -0.248402265207143, 50.8415918786649 ], [ -0.248562020148044, 50.842292181340802 ], [ -0.249388962599881, 50.842423324644699 ], [ -0.252614508620435, 50.845041007087602 ], [ -0.252813880132871, 50.8451549876198 ], [ -0.255891179394198, 50.847405813560002 ], [ -0.259192028706035, 50.849248425608998 ], [ -0.261666910221493, 50.850194966826699 ], [ -0.262799176981491, 50.8485997594547 ], [ -0.263761833216475, 50.8491207316927 ], [ -0.264863078556235, 50.850334626715103 ], [ -0.264692719806757, 50.852473786376201 ], [ -0.265292859678415, 50.854440239688799 ], [ -0.267209534470421, 50.857197625649 ], [ -0.270071366185349, 50.860003567633797 ], [ -0.275192183574746, 50.861242358502899 ], [ -0.27570333197019, 50.861698956402897 ], [ -0.276062363797778, 50.863425837945101 ], [ -0.269490372156749, 50.863716309922701 ], [ -0.262220128897263, 50.862347423322198 ], [ -0.259219142442408, 50.862155161149701 ], [ -0.256579116274185, 50.862335267960503 ], [ -0.256435654486545, 50.865872852309899 ], [ -0.258934490727775, 50.871207284246097 ], [ -0.255303120485723, 50.871551471929401 ], [ -0.249721617290225, 50.871023668023902 ], [ -0.248978047928795, 50.870648314354703 ], [ -0.249607746971658, 50.867991208102403 ], [ -0.248473096228064, 50.864136684070701 ], [ -0.244970982617297, 50.8638088926173 ], [ -0.244716296956268, 50.863434572575201 ], [ -0.241504565036494, 50.862876306240999 ], [ -0.23975310453851, 50.861952309280902 ] ] ] ] } },
{ "type": "Feature", "properties": { "lsoa21_code": "E01031352", "lsoa21_name": "Adur 001D" }, "geometry": { "type": "MultiPolygon", "coordinates": [ [ [ [ -0.236349213779855, 50.8459291327286 ], [ -0.235605239289241, 50.843492875255002 ], [ -0.234674702199904, 50.842515542362499 ], [ -0.234118376812124, 50.8425980830567 ], [ -0.234334190437498, 50.842866230073 ], [ -0.233689350223011, 50.843759731987902 ], [ -0.232389294793796, 50.842898604757401 ], [ -0.231515739566345, 50.843080252633399 ], [ -0.231254648886994, 50.8430731224082 ], [ -0.231000453343898, 50.842748921103698 ], [ -0.228476331319099, 50.842449242045198 ], [ -0.228456374873478, 50.841932685665 ], [ -0.22920788816931, 50.841239030820901 ], [ -0.228961241960572, 50.840952302242897 ], [ -0.23128920605754, 50.840055033795103 ], [ -0.23184237825926, 50.839836923618499 ], [ -0.231895122918047, 50.839851005790898 ], [ -0.234339270315301, 50.8402728369784 ], [ -0.234624966803431, 50.840309156413397 ], [ -0.237707736450859, 50.840691594020498 ], [ -0.238430086839531, 50.841229986865301 ], [ -0.237839262307112, 50.841503103203301 ], [ -0.238420730045617, 50.841955289928997 ], [ -0.24103178473652, 50.842136550144701 ], [ -0.241315589058621, 50.8431877068871 ], [ -0.239955123189796, 50.843588323889698 ], [ -0.23992128459564, 50.843926756810298 ], [ -0.239411223272782, 50.843892085396597 ], [ -0.239357704335748, 50.844255501782698 ], [ -0.238759247439318, 50.844354323335203 ], [ -0.239415135393795, 50.845067086486402 ], [ -0.237328581261951, 50.845475782052397 ], [ -0.236751248870095, 50.845485904675002 ], [ -0.236349213779855, 50.8459291327286 ] ] ] ] } },
{ "type": "Feature", "properties": { "lsoa21_code": "E01031353", "lsoa21_name": "Adur 003B" }, "geometry": { "type": "MultiPolygon", "coordinates": [ [ [ [ -0.298690168219572, 50.866260140949201 ], [ -0.299247919906992, 50.865139594822097 ], [ -0.301500813898474, 50.864423249379101 ], [ -0.302198076208403, 50.861305513972901 ], [ -0.301297823631968, 50.860544173334397 ], [ -0.298681415573859, 50.860867874606903 ], [ -0.296314416603013, 50.860277445446997 ], [ -0.296178234658745, 50.860243474089799 ], [ -0.293208056198844, 50.858579487778499 ], [ -0.293387092611133, 50.856363718373899 ], [ -0.295386978876662, 50.8552082457281 ], [ -0.296119987105929, 50.854244428875198 ], [ -0.295583350626415, 50.853601305198502 ], [ -0.293162965370247, 50.852728659795702 ], [ -0.291194578625243, 50.8508957958134 ], [ -0.293040928256377, 50.848947873213397 ], [ -0.29366844088493, 50.849212008996098 ], [ -0.29516530321184, 50.849205551700997 ], [ -0.292951086716056, 50.848799581298003 ], [ -0.292345848125569, 50.847207730182603 ], [ -0.288385104013675, 50.845832641586199 ], [ -0.288149399576032, 50.844195252270303 ], [ -0.288171071093812, 50.844164051116501 ], [ -0.288622335805153, 50.844016173724903 ], [ -0.288620708333623, 50.844018066345001 ], [ -0.288570841395229, 50.8440760518437 ], [ -0.288330677235091, 50.844307875271497 ], [ -0.288654747895416, 50.844378089938701 ], [ -0.288820707587505, 50.844004620001897 ], [ -0.288835340817254, 50.843948190817301 ], [ -0.288835803777469, 50.843946407028497 ], [ -0.298600941387507, 50.840754276392602 ], [ -0.308671127542101, 50.839020616843698 ], [ -0.314458058361963, 50.837568877871703 ], [ -0.317221110513042, 50.836864837211898 ], [ -0.317729208828123, 50.8366397903456 ], [ -0.319111292763911, 50.838016245111803 ], [ -0.320183403837787, 50.838303191156697 ], [ -0.321334203081327, 50.838636172616702 ], [ -0.32114294085421, 50.839240235147599 ], [ -0.32237129866038, 50.839937677488102 ], [ -0.322511260771974, 50.840839056257103 ], [ -0.32406002989461, 50.840557433379701 ], [ -0.324388806420726, 50.840900383591901 ], [ -0.32506000790768, 50.8409220293129 ], [ -0.325289582134673, 50.840608485486698 ], [ -0.325321513360091, 50.840945805787698 ], [ -0.325766097148304, 50.840971781103697 ], [ -0.325839538901707, 50.840683700096903 ], [ -0.32647041535836, 50.840642548095197 ], [ -0.326565835808213, 50.8410004017475 ], [ -0.327557979998075, 50.841178823742297 ], [ -0.327479161531059, 50.8417451800984 ], [ -0.327166984575919, 50.844173741201203 ], [ -0.326391044689177, 50.845899157129097 ], [ -0.327087112915895, 50.847003655187798 ], [ -0.329954336143089, 50.849455753268202 ], [ -0.329371687469823, 50.849983440884102 ], [ -0.333380930629785, 50.851720837161402 ], [ -0.337750167650906, 50.855274254778401 ], [ -0.339474032861058, 50.858306044868698 ], [ -0.341436670836826, 50.8594261636498 ], [ -0.343336176780644, 50.862907065507002 ], [ -0.339725564710748, 50.862540102651003 ], [ -0.331583078037245, 50.863063446238598 ], [ -0.325465189795511, 50.863828385203902 ], [ -0.32044516547348, 50.865426350958003 ], [ -0.316106976088097, 50.864668631595798 ], [ -0.313592657859071, 50.864529833762298 ], [ -0.313494732475396, 50.864915131452101 ], [ -0.311427871134567, 50.864771922045598 ], [ -0.309516176315551, 50.865247045662002 ], [ -0.307598581005043, 50.866504664115503 ], [ -0.302858944542766, 50.866134310912102 ], [ -0.298690168219572, 50.866260140949201 ] ] ] ] } },
{ "type": "Feature", "properties": { "lsoa21_code": "E01031354", "lsoa21_name": "Adur 003C" }, "geometry": { "type": "MultiPolygon", "coordinates": [ [ [ [ -0.326565835808213, 50.8410004017475 ], [ -0.32647041535836, 50.840642548095197 ], [ -0.325839538901707, 50.840683700096903 ], [ -0.325766097148304, 50.840971781103697 ], [ -0.325321513360091, 50.840945805787698 ], [ -0.325289582134673, 50.840608485486698 ], [ -0.32506000790768, 50.8409220293129 ], [ -0.324388806420726, 50.840900383591901 ], [ -0.32406002989461, 50.840557433379701 ], [ -0.322511260771974, 50.840839056257103 ], [ -0.32237129866038, 50.839937677488102 ], [ -0.32114294085421, 50.839240235147599 ], [ -0.321334203081327, 50.838636172616702 ], [ -0.320183403837787, 50.838303191156697 ], [ -0.319111292763911, 50.838016245111803 ], [ -0.317729208828123, 50.8366397903456 ], [ -0.321160383775962, 50.836449298260597 ], [ -0.321685427782608, 50.834510215799803 ], [ -0.322218325750873, 50.834544913112403 ], [ -0.322204483216773, 50.834931084972297 ], [ -0.322985764026122, 50.834975663081799 ], [ -0.323025892049513, 50.835342897216499 ], [ -0.323947793817374, 50.8359921134101 ], [ -0.325156274067839, 50.836088704693999 ], [ -0.325043245806573, 50.836559177095097 ], [ -0.32683939077154, 50.836817780910302 ], [ -0.328770203447334, 50.837192689255602 ], [ -0.328869859602039, 50.837789023042397 ], [ -0.328669730062109, 50.838287722105697 ], [ -0.328004755196969, 50.839843210030899 ], [ -0.327557979998075, 50.841178823742297 ], [ -0.326565835808213, 50.8410004017475 ] ] ] ] } },
{ "type": "Feature", "properties": { "lsoa21_code": "E01031355", "lsoa21_name": "Adur 003D" }, "geometry": { "type": "MultiPolygon", "coordinates": [ [ [ [ -0.321988342183593, 50.833674489718597 ], [ -0.32247838963285, 50.831947396910103 ], [ -0.324336127242849, 50.832032074703598 ], [ -0.324553320233075, 50.831543570459601 ], [ -0.326819499867565, 50.831613885745703 ], [ -0.327362486689311, 50.8320996637609 ], [ -0.327883814608473, 50.830812473873898 ], [ -0.328575068059532, 50.830855868933497 ], [ -0.329628353658558, 50.830921917211299 ], [ -0.32924056897351, 50.831826630810397 ], [ -0.32984064743575, 50.832022882449102 ], [ -0.329720511689672, 50.832243377975097 ], [ -0.331115642838116, 50.831950360043301 ], [ -0.331614297963597, 50.832435395505598 ], [ -0.33008719203831, 50.835182862153502 ], [ -0.329332605027507, 50.836738855537597 ], [ -0.329134124642058, 50.8371308447242 ], [ -0.328869859602039, 50.837789023042397 ], [ -0.328770203447334, 50.837192689255602 ], [ -0.32683939077154, 50.836817780910302 ], [ -0.325043245806573, 50.836559177095097 ], [ -0.325156274067839, 50.836088704693999 ], [ -0.323947793817374, 50.8359921134101 ], [ -0.323025892049513, 50.835342897216499 ], [ -0.322985764026122, 50.834975663081799 ], [ -0.322204483216773, 50.834931084972297 ], [ -0.322218325750873, 50.834544913112403 ], [ -0.321685427782608, 50.834510215799803 ], [ -0.321988342183593, 50.833674489718597 ] ] ] ] } },
{ "type": "Feature", "properties": { "lsoa21_code": "E01031356", "lsoa21_name": "Adur 005A" }, "geometry": { "type": "MultiPolygon", "coordinates": [ [ [ [ -0.255413657104792, 50.830399838819702 ], [ -0.254443352569665, 50.830125660442697 ], [ -0.251398495937816, 50.830313315885597 ], [ -0.25110681068646, 50.829146784366102 ], [ -0.250455581637309, 50.8284761808208 ], [ -0.250016482636271, 50.828024005205897 ], [ -0.249001180661999, 50.827916003275199 ], [ -0.248483330109001, 50.8265627309897 ], [ -0.249227947470278, 50.826495280560898 ], [ -0.249398332486814, 50.826041030848302 ], [ -0.249205990332543, 50.825857222786503 ], [ -0.248855150288756, 50.825482863344099 ], [ -0.249529164057331, 50.826092618795101 ], [ -0.252147000731965, 50.8258947153858 ], [ -0.256816587868112, 50.826076894130701 ], [ -0.261067222806239, 50.826242564785503 ], [ -0.265042614974947, 50.826397366265297 ], [ -0.276189277239127, 50.826830691160801 ], [ -0.279020630245993, 50.8264831118153 ], [ -0.279111182898019, 50.827284327894297 ], [ -0.275998189262749, 50.828305541110701 ], [ -0.275487441947775, 50.828834061449598 ], [ -0.274901063111117, 50.828812563556703 ], [ -0.275239805157486, 50.829016180825697 ], [ -0.274287992773324, 50.828867895022903 ], [ -0.274211085816068, 50.828541284466802 ], [ -0.273869332972178, 50.828865185455797 ], [ -0.272822293981037, 50.828768828769199 ], [ -0.272916678712588, 50.827838475076497 ], [ -0.27170522801377, 50.827943692553397 ], [ -0.271805662944452, 50.828196852706398 ], [ -0.271326772660363, 50.828291325049499 ], [ -0.271926558533419, 50.828486577319701 ], [ -0.271607387251225, 50.829130307820698 ], [ -0.271083528582462, 50.828854634750002 ], [ -0.267112740296224, 50.828969545281502 ], [ -0.266687270497225, 50.830725119769397 ], [ -0.266122089597821, 50.830721807433903 ], [ -0.26558809561489, 50.829777565061001 ], [ -0.265633044320603, 50.829456275914801 ], [ -0.261350425640846, 50.829364435297997 ], [ -0.261062685227668, 50.829701244220502 ], [ -0.261167681355611, 50.830901105170803 ], [ -0.258619678151517, 50.830841262349303 ], [ -0.256826763012088, 50.830799120313301 ], [ -0.255413657104792, 50.830399838819702 ] ] ] ] } },
{ "type": "Feature", "properties": { "lsoa21_code": "E01031357", "lsoa21_name": "Adur 005B" }, "geometry": { "type": "MultiPolygon", "coordinates": [ [ [ [ -0.280156919426479, 50.829506226109601 ], [ -0.280234616847587, 50.829506127922599 ], [ -0.280166329894589, 50.829522709484003 ], [ -0.279200485229622, 50.829757238421301 ], [ -0.279154993103172, 50.829507484727202 ], [ -0.280156919426479, 50.829506226109601 ] ] ], [ [ [ -0.277482470577839, 50.829569999323901 ], [ -0.278301551688434, 50.829356508826699 ], [ -0.278222162026885, 50.829857649973299 ], [ -0.27780406210012, 50.8298695681694 ], [ -0.278082705324823, 50.830164401574102 ], [ -0.277400250570992, 50.830202042979103 ], [ -0.277482470577839, 50.829569999323901 ] ] ], [ [ [ -0.273510276209433, 50.830055502784802 ], [ -0.274005097735519, 50.829965672871303 ], [ -0.274087630457444, 50.830221462194402 ], [ -0.273510276209433, 50.830055502784802 ] ] ], [ [ [ -0.281519053859628, 50.830167195496401 ], [ -0.280991788686984, 50.829894619483099 ], [ -0.280393206616188, 50.8299201330248 ], [ -0.279487470883276, 50.829958731359802 ], [ -0.280365203007926, 50.8298710793269 ], [ -0.281871889823703, 50.829720602435003 ], [ -0.281851661706386, 50.830109488015097 ], [ -0.28215304464049, 50.829722069228801 ], [ -0.282981549635798, 50.829679479470599 ], [ -0.281734251944965, 50.830337452979002 ], [ -0.281519053859628, 50.830167195496401 ] ] ], [ [ [ -0.275150746680825, 50.830112211671803 ], [ -0.27508535705577, 50.829801915197002 ], [ -0.276141297804311, 50.829885009760801 ], [ -0.276064715116894, 50.830258546562298 ], [ -0.275150746680825, 50.830112211671803 ] ] ], [ [ [ -0.274196029926299, 50.830192415137397 ], [ -0.27458509701793, 50.829788343390497 ], [ -0.275078347528147, 50.830033843029902 ], [ -0.275138439549416, 50.8302498726595 ], [ -0.27476869270157, 50.830209711788399 ], [ -0.274196029926299, 50.830192415137397 ] ] ], [ [ [ -0.276439233439605, 50.8295977331112 ], [ -0.27692718164553, 50.829581985388799 ], [ -0.277219362751915, 50.830219446907499 ], [ -0.276193150112708, 50.8302787989305 ], [ -0.276273733510962, 50.829968500218797 ], [ -0.276439233439605, 50.8295977331112 ] ] ], [ [ [ -0.278993783444147, 50.830825707778899 ], [ -0.2773997826104, 50.830437493997202 ], [ -0.279326236512119, 50.830042925922797 ], [ -0.279866196730991, 50.830107272936402 ], [ -0.279667993852631, 50.8303058237314 ], [ -0.279581009144807, 50.830501255848702 ], [ -0.279617896253568, 50.830536145539902 ], [ -0.279841511882333, 50.8307476486806 ], [ -0.279699472491327, 50.830498297245903 ], [ -0.279692022724951, 50.830485219778197 ], [ -0.279991388976323, 50.8303596576622 ], [ -0.279994947435385, 50.830361206607797 ], [ -0.280297883557599, 50.830493085711304 ], [ -0.280117926987962, 50.8303041482746 ], [ -0.280065985640964, 50.830249615540097 ], [ -0.280416741590954, 50.830130979009198 ], [ -0.28045906647666, 50.830145867928401 ], [ -0.281319937751059, 50.830448709386197 ], [ -0.280255319462329, 50.831191143009399 ], [ -0.279145396448699, 50.830862631647101 ], [ -0.278993783444147, 50.830825707778899 ] ] ], [ [ [ -0.285567025114947, 50.833386125538503 ], [ -0.285566329404646, 50.833383565670999 ], [ -0.285555439987983, 50.833385456212703 ], [ -0.284176278540644, 50.833305791760999 ], [ -0.284512019707715, 50.833566629003798 ], [ -0.284322429788436, 50.833600027829803 ], [ -0.280311438186576, 50.831362611769698 ], [ -0.284596805318363, 50.829686814059798 ], [ -0.285408737667134, 50.830422799238598 ], [ -0.286611471382023, 50.830287042507003 ], [ -0.286513871090466, 50.829839956131003 ], [ -0.285053725796537, 50.829693465181599 ], [ -0.283942401498304, 50.829120391999901 ], [ -0.280000509182686, 50.829232232510599 ], [ -0.279417691453758, 50.829248756832797 ], [ -0.278866077688712, 50.8293727929657 ], [ -0.279066750883761, 50.829768694150303 ], [ -0.278741877140931, 50.8299815550956 ], [ -0.27851984702523, 50.829745350175301 ], [ -0.27842089797607, 50.830130609959298 ], [ -0.278459337023133, 50.829326243596299 ], [ -0.27535484066506, 50.829434206021901 ], [ -0.274203778855565, 50.829869412484499 ], [ -0.272726740327901, 50.829978609893203 ], [ -0.272730431156629, 50.830034528312098 ], [ -0.27275207654989, 50.830362502092598 ], [ -0.272360912254154, 50.830027339519397 ], [ -0.272223032877753, 50.829909199471203 ], [ -0.27189622162006, 50.830013483981098 ], [ -0.271037008231054, 50.830287647928898 ], [ -0.269802448199544, 50.830251503691002 ], [ -0.270487287182292, 50.830498531256602 ], [ -0.269752569678374, 50.8306672066958 ], [ -0.269456881545361, 50.830350417547699 ], [ -0.268826913446797, 50.830698359843502 ], [ -0.267062567192006, 50.830649930588898 ], [ -0.267024063641348, 50.830736167469098 ], [ -0.266890498141785, 50.831035308976503 ], [ -0.264131538573206, 50.830970644826401 ], [ -0.261167681355611, 50.830901105170803 ], [ -0.261062685227668, 50.829701244220502 ], [ -0.261350425640846, 50.829364435297997 ], [ -0.265633044320603, 50.829456275914801 ], [ -0.26558809561489, 50.829777565061001 ], [ -0.266122089597821, 50.830721807433903 ], [ -0.266687270497225, 50.830725119769397 ], [ -0.267112740296224, 50.828969545281502 ], [ -0.271083528582462, 50.828854634750002 ], [ -0.271607387251225, 50.829130307820698 ], [ -0.271926558533419, 50.828486577319701 ], [ -0.271326772660363, 50.828291325049499 ], [ -0.271805662944452, 50.828196852706398 ], [ -0.27170522801377, 50.827943692553397 ], [ -0.272916678712588, 50.827838475076497 ], [ -0.272822293981037, 50.828768828769199 ], [ -0.273869332972178, 50.828865185455797 ], [ -0.274211085816068, 50.828541284466802 ], [ -0.274287992773324, 50.828867895022903 ], [ -0.275239805157486, 50.829016180825697 ], [ -0.274901063111117, 50.828812563556703 ], [ -0.275487441947775, 50.828834061449598 ], [ -0.275998189262749, 50.828305541110701 ], [ -0.279111182898019, 50.827284327894297 ], [ -0.279020630245993, 50.8264831118153 ], [ -0.290538280866508, 50.825068436681697 ], [ -0.290506558283645, 50.825639424506498 ], [ -0.290642762473739, 50.8263321370897 ], [ -0.291403641412973, 50.826808222932499 ], [ -0.288927360541166, 50.827840328439102 ], [ -0.287488125624314, 50.828491693326903 ], [ -0.286623060094653, 50.828932651713401 ], [ -0.287047245470393, 50.8311879927642 ], [ -0.285812076396181, 50.833345431418302 ], [ -0.285926952807372, 50.834709433406502 ], [ -0.285567025114947, 50.833386125538503 ] ] ] ] } },
{ "type": "Feature", "properties": { "lsoa21_code": "E01031358", "lsoa21_name": "Adur 007A" }, "geometry": { "type": "MultiPolygon", "coordinates": [ [ [ [ -0.289494197387414, 50.841407341281098 ], [ -0.289242067216674, 50.839532496778602 ], [ -0.289814425818725, 50.840204184407803 ], [ -0.289728531570434, 50.839849170313101 ], [ -0.287402553305336, 50.837333350113703 ], [ -0.28774145035867, 50.837066092204999 ], [ -0.287130810490379, 50.837123925788497 ], [ -0.286296512164659, 50.836620044519996 ], [ -0.286441923639515, 50.836308521857703 ], [ -0.285829486826873, 50.836142956467498 ], [ -0.286605280279568, 50.8359181456374 ], [ -0.285762924677036, 50.836080041179102 ], [ -0.285912978996218, 50.835821993808501 ], [ -0.285409290118878, 50.835624923945502 ], [ -0.286168989388157, 50.835575305065703 ], [ -0.28534313867325, 50.835555098505701 ], [ -0.285280601595506, 50.835039544259701 ], [ -0.28588567084533, 50.834733513105498 ], [ -0.286747538696669, 50.835528418156798 ], [ -0.28592792033952, 50.834712990121901 ], [ -0.285926952807372, 50.834709433406502 ], [ -0.285812076396181, 50.833345431418302 ], [ -0.301455397740883, 50.830726099500197 ], [ -0.304776786831036, 50.830168172653003 ], [ -0.307252568843278, 50.830905708160401 ], [ -0.309092641268567, 50.832052748934998 ], [ -0.313437630267861, 50.831899797380601 ], [ -0.315227234722646, 50.831998296735698 ], [ -0.314526124488453, 50.8332196025409 ], [ -0.316084087211065, 50.832332019790698 ], [ -0.316082974265757, 50.832045926949696 ], [ -0.316557626118419, 50.8320168016906 ], [ -0.317857065055801, 50.832090034431502 ], [ -0.31712708065114, 50.834680431256601 ], [ -0.31769773475646, 50.834721594004101 ], [ -0.317221110513042, 50.836864837211898 ], [ -0.314458058361963, 50.837568877871703 ], [ -0.308671127542101, 50.839020616843698 ], [ -0.298600941387507, 50.840754276392602 ], [ -0.288835803777469, 50.843946407028497 ], [ -0.289494197387414, 50.841407341281098 ] ] ], [ [ [ -0.288171071093812, 50.844164051116501 ], [ -0.288520055643377, 50.843661611186199 ], [ -0.288842459175764, 50.843760210934803 ], [ -0.288622335805153, 50.844016173724903 ], [ -0.288171071093812, 50.844164051116501 ] ] ] ] } },
{ "type": "Feature", "properties": { "lsoa21_code": "E01031359", "lsoa21_name": "Adur 003E" }, "geometry": { "type": "MultiPolygon", "coordinates": [ [ [ [ -0.317857065055801, 50.832090034431502 ], [ -0.318555522438532, 50.831339944772303 ], [ -0.317805323241083, 50.831152489227698 ], [ -0.317575153179029, 50.831642747902102 ], [ -0.316923896881065, 50.831741490191497 ], [ -0.316179190805597, 50.831497331028501 ], [ -0.31566347376591, 50.8305962407998 ], [ -0.316037389968195, 50.830171177665598 ], [ -0.316864960613311, 50.830144786763199 ], [ -0.318048543405729, 50.8307580199208 ], [ -0.318454532575818, 50.830466794494903 ], [ -0.318915337642433, 50.831001591407002 ], [ -0.318808534460305, 50.8316482661373 ], [ -0.319627789496068, 50.831459805759302 ], [ -0.320116455549317, 50.831015911254497 ], [ -0.321203258258186, 50.831110919722398 ], [ -0.320823716160685, 50.831165086568198 ], [ -0.320948832497203, 50.831419912946998 ], [ -0.323278475373322, 50.831484392726999 ], [ -0.32247838963285, 50.831947396910103 ], [ -0.321988342183593, 50.833674489718597 ], [ -0.321685427782608, 50.834510215799803 ], [ -0.321160383775962, 50.836449298260597 ], [ -0.317729208828123, 50.8366397903456 ], [ -0.317221110513042, 50.836864837211898 ], [ -0.31769773475646, 50.834721594004101 ], [ -0.31712708065114, 50.834680431256601 ], [ -0.317857065055801, 50.832090034431502 ] ] ] ] } },
{ "type": "Feature", "properties": { "lsoa21_code": "E01031360", "lsoa21_name": "Adur 007B" }, "geometry": { "type": "MultiPolygon", "coordinates": [ [ [ [ -0.315227234722646, 50.831998296735698 ], [ -0.313437630267861, 50.831899797380601 ], [ -0.309092641268567, 50.832052748934998 ], [ -0.307252568843278, 50.830905708160401 ], [ -0.304776786831036, 50.830168172653003 ], [ -0.312572391334299, 50.828849054886 ], [ -0.313733643061141, 50.828655660983301 ], [ -0.315562664372778, 50.828340841350503 ], [ -0.319913415425702, 50.8276002485999 ], [ -0.320416532148334, 50.827515381074399 ], [ -0.322224450040807, 50.827207591939903 ], [ -0.322740105894364, 50.827120397789798 ], [ -0.322686122990467, 50.827271597987703 ], [ -0.322446879564913, 50.828372989466303 ], [ -0.324405796696348, 50.828704161707201 ], [ -0.325331358018883, 50.8288522252126 ], [ -0.324897874193222, 50.830351717214398 ], [ -0.324752490723815, 50.830854640324901 ], [ -0.324553320233075, 50.831543570459601 ], [ -0.324336127242849, 50.832032074703598 ], [ -0.32247838963285, 50.831947396910103 ], [ -0.323278475373322, 50.831484392726999 ], [ -0.320948832497203, 50.831419912946998 ], [ -0.320823716160685, 50.831165086568198 ], [ -0.321203258258186, 50.831110919722398 ], [ -0.320116455549317, 50.831015911254497 ], [ -0.319627789496068, 50.831459805759302 ], [ -0.318808534460305, 50.8316482661373 ], [ -0.318915337642433, 50.831001591407002 ], [ -0.318454532575818, 50.830466794494903 ], [ -0.318048543405729, 50.8307580199208 ], [ -0.316864960613311, 50.830144786763199 ], [ -0.316037389968195, 50.830171177665598 ], [ -0.31566347376591, 50.8305962407998 ], [ -0.316179190805597, 50.831497331028501 ], [ -0.316923896881065, 50.831741490191497 ], [ -0.317575153179029, 50.831642747902102 ], [ -0.317805323241083, 50.831152489227698 ], [ -0.318555522438532, 50.831339944772303 ], [ -0.317857065055801, 50.832090034431502 ], [ -0.316557626118419, 50.8320168016906 ], [ -0.316082974265757, 50.832045926949696 ], [ -0.316084087211065, 50.832332019790698 ], [ -0.314526124488453, 50.8332196025409 ], [ -0.315227234722646, 50.831998296735698 ] ] ] ] } },
{ "type": "Feature", "properties": { "lsoa21_code": "E01031361", "lsoa21_name": "Adur 006C" }, "geometry": { "type": "MultiPolygon", "coordinates": [ [ [ [ -0.341565085305528, 50.8344164314192 ], [ -0.341366164046123, 50.8339326301166 ], [ -0.340238177292485, 50.8339434335007 ], [ -0.340858825376825, 50.8328633042345 ], [ -0.340609426343473, 50.832427053599602 ], [ -0.341192542483639, 50.831685152239203 ], [ -0.339467821087814, 50.830591418586998 ], [ -0.339502754285096, 50.830519840158203 ], [ -0.339113587918321, 50.8297790502182 ], [ -0.339503128751574, 50.828138674840197 ], [ -0.338460074993667, 50.828247453719001 ], [ -0.33830574144069, 50.828536458807399 ], [ -0.336840403539889, 50.828297535421299 ], [ -0.335976582877599, 50.829048615832399 ], [ -0.33555092007637, 50.829021941708199 ], [ -0.335640082943173, 50.828764590947699 ], [ -0.336357499453482, 50.828170911303602 ], [ -0.335829621876386, 50.827911571775303 ], [ -0.336329281746926, 50.8274321905308 ], [ -0.336962690866048, 50.827692258002202 ], [ -0.337132287443585, 50.827462151533098 ], [ -0.338374376311125, 50.827663869635202 ], [ -0.338510111411827, 50.826665865017098 ], [ -0.340650002559351, 50.826846015141697 ], [ -0.340154928422002, 50.828046605008304 ], [ -0.339937672057542, 50.829069048528403 ], [ -0.340580180031977, 50.828970261028303 ], [ -0.340965313100534, 50.828397081417698 ], [ -0.341471235294957, 50.828631425635997 ], [ -0.343993758337698, 50.8288164853412 ], [ -0.348013502699743, 50.826874701972898 ], [ -0.346469895117853, 50.8309947595964 ], [ -0.34645008688545, 50.8312300514323 ], [ -0.348131505723714, 50.831469720961302 ], [ -0.347853908537699, 50.832116055664102 ], [ -0.346933308285718, 50.8343059932876 ], [ -0.343497068584993, 50.834416890694598 ], [ -0.341565085305528, 50.8344164314192 ] ] ] ] } },
{ "type": "Feature", "properties": { "lsoa21_code": "E01031362", "lsoa21_name": "Adur 006D" }, "geometry": { "type": "MultiPolygon", "coordinates": [ [ [ [ -0.366473816740981, 50.874738166683798 ], [ -0.366040215698061, 50.874372370366103 ], [ -0.364597903351326, 50.874525787449898 ], [ -0.359871634433904, 50.8725430084056 ], [ -0.355838175901281, 50.869549908128597 ], [ -0.352983581963357, 50.868280335430597 ], [ -0.351944038470486, 50.867369010174798 ], [ -0.349115911392544, 50.865960323849201 ], [ -0.34867142694039, 50.865229164627898 ], [ -0.349121139317703, 50.864441387354297 ], [ -0.344550671673375, 50.8639621249065 ], [ -0.343787321680488, 50.862933297637397 ], [ -0.343336176780644, 50.862907065507002 ], [ -0.341436670836826, 50.8594261636498 ], [ -0.343490045310577, 50.859614079133301 ], [ -0.343581151240825, 50.858599216208702 ], [ -0.345900621633586, 50.855087854815302 ], [ -0.345181101993224, 50.853136868171397 ], [ -0.345073501011216, 50.850556114460502 ], [ -0.344131727641541, 50.848553411300401 ], [ -0.343977271271105, 50.845216480693402 ], [ -0.342456531049737, 50.842577481663398 ], [ -0.342037040029788, 50.840516011534397 ], [ -0.34275945142535, 50.837678164686601 ], [ -0.338001293639917, 50.837705747794899 ], [ -0.338324765893685, 50.836679267096798 ], [ -0.338639401536045, 50.835236410858599 ], [ -0.338158055530518, 50.835048783473297 ], [ -0.33764643968375, 50.834923406105403 ], [ -0.337515129226712, 50.834878223929501 ], [ -0.338045492713013, 50.834109189888103 ], [ -0.33965323154704, 50.834280877594601 ], [ -0.340609426343473, 50.832427053599602 ], [ -0.340858825376825, 50.8328633042345 ], [ -0.340238177292485, 50.8339434335007 ], [ -0.341366164046123, 50.8339326301166 ], [ -0.341565085305528, 50.8344164314192 ], [ -0.343497068584993, 50.834416890694598 ], [ -0.346933308285718, 50.8343059932876 ], [ -0.347575159937325, 50.834304974787003 ], [ -0.348188206841124, 50.833692584858198 ], [ -0.349899866492381, 50.8333300160078 ], [ -0.354648617495605, 50.829702028430503 ], [ -0.358342596616826, 50.830638880006497 ], [ -0.357116736478506, 50.834325202921903 ], [ -0.358837100233742, 50.834189364651102 ], [ -0.358949817499951, 50.834617959047797 ], [ -0.359139153432382, 50.835586641968803 ], [ -0.359564778863765, 50.836650197395002 ], [ -0.359337103559473, 50.837955534606699 ], [ -0.359731968036707, 50.838237187062703 ], [ -0.35936635205655, 50.839677291803199 ], [ -0.359633422119582, 50.840986758979497 ], [ -0.359514934692237, 50.842364767036401 ], [ -0.358520901910225, 50.8435342586491 ], [ -0.360248040852749, 50.8462457660981 ], [ -0.362070336103846, 50.846536654478903 ], [ -0.362093449604688, 50.8468904585229 ], [ -0.365460157596153, 50.846941235168998 ], [ -0.366712503174617, 50.848656664258201 ], [ -0.367233383045863, 50.851807934820201 ], [ -0.368995999757513, 50.855281556048197 ], [ -0.367118485629198, 50.856243643677502 ], [ -0.368048141589726, 50.858308019237001 ], [ -0.367453240516269, 50.860531773906203 ], [ -0.366752390399927, 50.860904181409403 ], [ -0.366762840036241, 50.864024984595801 ], [ -0.36817223659489, 50.8665223189873 ], [ -0.371181960117182, 50.869785747569097 ], [ -0.371507858153108, 50.870668049046898 ], [ -0.371260012037495, 50.871662764730402 ], [ -0.369808259113834, 50.873198396014701 ], [ -0.366473816740981, 50.874738166683798 ] ] ] ] } },
{ "type": "Feature", "properties": { "lsoa21_code": "E01031363", "lsoa21_name": "Adur 006E" }, "geometry": { "type": "MultiPolygon", "coordinates": [ [ [ [ -0.346469895117853, 50.8309947595964 ], [ -0.348013502699743, 50.826874701972898 ], [ -0.343993758337698, 50.8288164853412 ], [ -0.341471235294957, 50.828631425635997 ], [ -0.340965313100534, 50.828397081417698 ], [ -0.340580180031977, 50.828970261028303 ], [ -0.339937672057542, 50.829069048528403 ], [ -0.340154928422002, 50.828046605008304 ], [ -0.340650002559351, 50.826846015141697 ], [ -0.338510111411827, 50.826665865017098 ], [ -0.338374376311125, 50.827663869635202 ], [ -0.337132287443585, 50.827462151533098 ], [ -0.336962690866048, 50.827692258002202 ], [ -0.336329281746926, 50.8274321905308 ], [ -0.335829621876386, 50.827911571775303 ], [ -0.336357499453482, 50.828170911303602 ], [ -0.335640082943173, 50.828764590947699 ], [ -0.33555092007637, 50.829021941708199 ], [ -0.335976582877599, 50.829048615832399 ], [ -0.336840403539889, 50.828297535421299 ], [ -0.33830574144069, 50.828536458807399 ], [ -0.338460074993667, 50.828247453719001 ], [ -0.339503128751574, 50.828138674840197 ], [ -0.339113587918321, 50.8297790502182 ], [ -0.339502754285096, 50.830519840158203 ], [ -0.339467821087814, 50.830591418586998 ], [ -0.338968230478251, 50.830566285937799 ], [ -0.338624778220888, 50.830488305577099 ], [ -0.338814620424776, 50.830065912088202 ], [ -0.33837017206387, 50.829985738015303 ], [ -0.338238187855839, 50.830415070248698 ], [ -0.337717771265666, 50.830561604034799 ], [ -0.336620631775433, 50.829954637613703 ], [ -0.336819378100789, 50.829557035241301 ], [ -0.335315459357338, 50.829312200201699 ], [ -0.333592354188574, 50.829233818087701 ], [ -0.333306708147752, 50.829003053574802 ], [ -0.333632386513738, 50.828173415239398 ], [ -0.333674061959627, 50.8280772860223 ], [ -0.333754783096273, 50.827897963355397 ], [ -0.334641286896996, 50.8261421407596 ], [ -0.33518781814399, 50.824992027381299 ], [ -0.335998108405318, 50.8232067418854 ], [ -0.337196571094659, 50.820974451727103 ], [ -0.338735529920975, 50.8220638991084 ], [ -0.340769496778172, 50.822382866258003 ], [ -0.340914982478015, 50.822737027285598 ], [ -0.342492191964099, 50.822441583729798 ], [ -0.342872544602225, 50.822309769359599 ], [ -0.343892711747963, 50.8227209173413 ], [ -0.344176240319215, 50.823351178713203 ], [ -0.349426277783673, 50.822549228908699 ], [ -0.350741006836693, 50.822872216949698 ], [ -0.351793864623433, 50.824902111532303 ], [ -0.353261803430689, 50.825235777629302 ], [ -0.353781173572505, 50.826007178116299 ], [ -0.354158585879018, 50.826007567107702 ], [ -0.354304679619947, 50.826820796430198 ], [ -0.355302941903673, 50.827015263539899 ], [ -0.35570792430299, 50.827699467730199 ], [ -0.354541306779922, 50.828212651629599 ], [ -0.353194400480403, 50.829041856169198 ], [ -0.354648617495605, 50.829702028430503 ], [ -0.349899866492381, 50.8333300160078 ], [ -0.348188206841124, 50.833692584858198 ], [ -0.347575159937325, 50.834304974787003 ], [ -0.346933308285718, 50.8343059932876 ], [ -0.347853908537699, 50.832116055664102 ], [ -0.348131505723714, 50.831469720961302 ], [ -0.34645008688545, 50.8312300514323 ], [ -0.346469895117853, 50.8309947595964 ] ] ] ] } },
{ "type": "Feature", "properties": { "lsoa21_code": "E01031364", "lsoa21_name": "Adur 005C" }, "geometry": { "type": "MultiPolygon", "coordinates": [ [ [ [ -0.272303377744108, 50.8345560857748 ], [ -0.272336575255949, 50.834405188483103 ], [ -0.267288873720118, 50.833846624895699 ], [ -0.26736886436163, 50.8333969881554 ], [ -0.267291465700175, 50.832860638558202 ], [ -0.265712061996918, 50.832946804933997 ], [ -0.26462144765245, 50.832931927336602 ], [ -0.264871235035901, 50.832227495595902 ], [ -0.264402092066884, 50.831709974985202 ], [ -0.269440223866343, 50.831726062424302 ], [ -0.270171244114455, 50.8319459956545 ], [ -0.271038537665279, 50.831923068831699 ], [ -0.271205992712587, 50.831598672610497 ], [ -0.272096703012715, 50.8314518580098 ], [ -0.272652855509428, 50.831734974278397 ], [ -0.273916859300228, 50.831593937056098 ], [ -0.275937258429963, 50.831368472224199 ], [ -0.277054631408542, 50.831637597208903 ], [ -0.279222616156944, 50.832159728222202 ], [ -0.279903519678347, 50.8326779923784 ], [ -0.281626789151922, 50.833989573436902 ], [ -0.281679891985621, 50.834029987302102 ], [ -0.280027508102549, 50.834292140754599 ], [ -0.279438004127679, 50.834355569596298 ], [ -0.27891344018962, 50.8344073369908 ], [ -0.277214119563229, 50.834539139099199 ], [ -0.276452235761476, 50.8345641563835 ], [ -0.273184129989558, 50.834479226449098 ], [ -0.272356209050335, 50.834464241958699 ], [ -0.272303377744108, 50.8345560857748 ] ] ] ] } },
{ "type": "Feature", "properties": { "lsoa21_code": "E01031365", "lsoa21_name": "Adur 002D" }, "geometry": { "type": "MultiPolygon", "coordinates": [ [ [ [ -0.259028835329455, 50.840205698584001 ], [ -0.259169799729686, 50.837328591633899 ], [ -0.259171618664925, 50.8373098585284 ], [ -0.260501050863242, 50.837414142831797 ], [ -0.260573507845232, 50.8368533959137 ], [ -0.2609631224959, 50.836822076179999 ], [ -0.261605536337717, 50.8375114648736 ], [ -0.261395754590299, 50.838731055862503 ], [ -0.262292491226485, 50.8388048169314 ], [ -0.263262349165804, 50.838197806751801 ], [ -0.262702661974507, 50.837550839360297 ], [ -0.262904634835489, 50.836475482754103 ], [ -0.264525268482609, 50.836635836446803 ], [ -0.26535132585586, 50.836696869660301 ], [ -0.265495052116689, 50.836465491810003 ], [ -0.265577047707192, 50.836276050126898 ], [ -0.268586720915767, 50.836755020755596 ], [ -0.269010599544253, 50.835950507661302 ], [ -0.267273946053887, 50.835817711641397 ], [ -0.267233877228792, 50.835392677090098 ], [ -0.26757797382323, 50.835028125150501 ], [ -0.267032078775968, 50.834896875589301 ], [ -0.267288873720118, 50.833846624895699 ], [ -0.272336575255949, 50.834405188483103 ], [ -0.272303377744108, 50.8345560857748 ], [ -0.271764546393624, 50.8344798621183 ], [ -0.271758163392435, 50.835071715968901 ], [ -0.27107891327626, 50.8352700524567 ], [ -0.270930884942373, 50.8358108813147 ], [ -0.270354264160787, 50.837348159709201 ], [ -0.270254054208402, 50.837615847119999 ], [ -0.269734092620086, 50.838644431708403 ], [ -0.270032325024739, 50.8397739075711 ], [ -0.265114445513998, 50.839546827619301 ], [ -0.263611073022678, 50.839910075663397 ], [ -0.261556504652329, 50.840655038016202 ], [ -0.261283107895484, 50.840751479935903 ], [ -0.258664119453568, 50.841640218029397 ], [ -0.259028835329455, 50.840205698584001 ] ] ] ] } },
{ "type": "Feature", "properties": { "lsoa21_code": "E01031366", "lsoa21_name": "Adur 004C" }, "geometry": { "type": "MultiPolygon", "coordinates": [ [ [ [ -0.261605536337717, 50.8375114648736 ], [ -0.2609631224959, 50.836822076179999 ], [ -0.260573507845232, 50.8368533959137 ], [ -0.260501050863242, 50.837414142831797 ], [ -0.259171618664925, 50.8373098585284 ], [ -0.259031698963986, 50.836002325771098 ], [ -0.258723990483627, 50.835960836169903 ], [ -0.255029496278193, 50.835462669822299 ], [ -0.255709794429466, 50.833875212720997 ], [ -0.253009795832535, 50.833516134193196 ], [ -0.250458193483024, 50.833072575190897 ], [ -0.251086028223511, 50.831901457155901 ], [ -0.251602486425011, 50.8319406168253 ], [ -0.252086136577499, 50.831108179628401 ], [ -0.25798006270802, 50.831689152486099 ], [ -0.264402092066884, 50.831709974985202 ], [ -0.264871235035901, 50.832227495595902 ], [ -0.26462144765245, 50.832931927336602 ], [ -0.265712061996918, 50.832946804933997 ], [ -0.267291465700175, 50.832860638558202 ], [ -0.26736886436163, 50.8333969881554 ], [ -0.267288873720118, 50.833846624895699 ], [ -0.267032078775968, 50.834896875589301 ], [ -0.26757797382323, 50.835028125150501 ], [ -0.267233877228792, 50.835392677090098 ], [ -0.267273946053887, 50.835817711641397 ], [ -0.269010599544253, 50.835950507661302 ], [ -0.268586720915767, 50.836755020755596 ], [ -0.265577047707192, 50.836276050126898 ], [ -0.265495052116689, 50.836465491810003 ], [ -0.26535132585586, 50.836696869660301 ], [ -0.264525268482609, 50.836635836446803 ], [ -0.262904634835489, 50.836475482754103 ], [ -0.262702661974507, 50.837550839360297 ], [ -0.263262349165804, 50.838197806751801 ], [ -0.262292491226485, 50.8388048169314 ], [ -0.261395754590299, 50.838731055862503 ], [ -0.261605536337717, 50.8375114648736 ] ] ] ] } },
{ "type": "Feature", "properties": { "lsoa21_code": "E01031367", "lsoa21_name": "Adur 002E" }, "geometry": { "type": "MultiPolygon", "coordinates": [ [ [ [ -0.270032325024739, 50.8397739075711 ], [ -0.269734092620086, 50.838644431708403 ], [ -0.270254054208402, 50.837615847119999 ], [ -0.270354264160787, 50.837348159709201 ], [ -0.272150084566376, 50.837515196730699 ], [ -0.271882431231066, 50.838342116466301 ], [ -0.27227566254048, 50.838927705751601 ], [ -0.272586479777122, 50.838659081995402 ], [ -0.274607403523629, 50.838907263801197 ], [ -0.274971394586598, 50.837981278146103 ], [ -0.275675864125673, 50.838102044814697 ], [ -0.275783514329503, 50.838335053160201 ], [ -0.27582953196543, 50.838389783222802 ], [ -0.277594085516812, 50.8376931240864 ], [ -0.278981740390362, 50.836567319239599 ], [ -0.2793462860328, 50.836622202102902 ], [ -0.27961618266647, 50.836233734944898 ], [ -0.283356767438982, 50.838642154495503 ], [ -0.282930275901703, 50.838953043037002 ], [ -0.282891229257164, 50.839020836522899 ], [ -0.282974154155258, 50.839769201477601 ], [ -0.280373259729526, 50.839679633585199 ], [ -0.280113732671904, 50.840566138691898 ], [ -0.280872673847255, 50.840827847920103 ], [ -0.279507718202214, 50.841746252202597 ], [ -0.279103231616504, 50.842228190327198 ], [ -0.278257525985076, 50.842726011693799 ], [ -0.277734390695132, 50.842632785138797 ], [ -0.273397002830036, 50.841859704507499 ], [ -0.273563654900456, 50.8411919593714 ], [ -0.273927252095115, 50.840250390613399 ], [ -0.27395402737464, 50.840181042764598 ], [ -0.273969654506308, 50.840140911484802 ], [ -0.270032325024739, 50.8397739075711 ] ] ] ] } },
{ "type": "Feature", "properties": { "lsoa21_code": "E01031368", "lsoa21_name": "Adur 005D" }, "geometry": { "type": "MultiPolygon", "coordinates": [ [ [ [ -0.285555439987983, 50.833385456212703 ], [ -0.285566329404646, 50.833383565670999 ], [ -0.285567025114947, 50.833386125538503 ], [ -0.285555439987983, 50.833385456212703 ] ] ], [ [ [ -0.284322429788436, 50.833600027829803 ], [ -0.284512019707715, 50.833566629003798 ], [ -0.284513303840922, 50.8335676263642 ], [ -0.284704876998475, 50.833979022321898 ], [ -0.284322429788436, 50.833600027829803 ] ] ], [ [ [ -0.285279233778586, 50.835028269806202 ], [ -0.284611774186822, 50.834171120531401 ], [ -0.285170299986741, 50.834282671121599 ], [ -0.285022742633148, 50.833904092467499 ], [ -0.28547172083455, 50.833924773039101 ], [ -0.28588567084533, 50.834733513105498 ], [ -0.285280601595506, 50.835039544259701 ], [ -0.285279233778586, 50.835028269806202 ] ] ], [ [ [ -0.279507718202214, 50.841746252202597 ], [ -0.280872673847255, 50.840827847920103 ], [ -0.280113732671904, 50.840566138691898 ], [ -0.280373259729526, 50.839679633585199 ], [ -0.282974154155258, 50.839769201477601 ], [ -0.282891229257164, 50.839020836522899 ], [ -0.282930275901703, 50.838953043037002 ], [ -0.283356767438982, 50.838642154495503 ], [ -0.27961618266647, 50.836233734944898 ], [ -0.28016523255702, 50.836002933773898 ], [ -0.27888988788342, 50.835261516356198 ], [ -0.27891344018962, 50.8344073369908 ], [ -0.279438004127679, 50.834355569596298 ], [ -0.280027508102549, 50.834292140754599 ], [ -0.281679891985621, 50.834029987302102 ], [ -0.281695953970059, 50.834042211055703 ], [ -0.284789816006594, 50.837416436461801 ], [ -0.287005416103908, 50.839832465980599 ], [ -0.287664112307283, 50.840550695235798 ], [ -0.287662597335174, 50.840552969923898 ], [ -0.28669306251101, 50.840472157748898 ], [ -0.286878870104765, 50.840970367789303 ], [ -0.286244732907501, 50.840957469686998 ], [ -0.285240323688472, 50.842748212250498 ], [ -0.284421350712095, 50.8428048870162 ], [ -0.283686292386491, 50.843462332948498 ], [ -0.279103231616504, 50.842228190327198 ], [ -0.279507718202214, 50.841746252202597 ] ] ] ] } },
{ "type": "Feature", "properties": { "lsoa21_code": "E01031369", "lsoa21_name": "Adur 005E" }, "geometry": { "type": "MultiPolygon", "coordinates": [ [ [ [ -0.27227566254048, 50.838927705751601 ], [ -0.271882431231066, 50.838342116466301 ], [ -0.272150084566376, 50.837515196730699 ], [ -0.270354264160787, 50.837348159709201 ], [ -0.270930884942373, 50.8358108813147 ], [ -0.27107891327626, 50.8352700524567 ], [ -0.271758163392435, 50.835071715968901 ], [ -0.271764546393624, 50.8344798621183 ], [ -0.272303377744108, 50.8345560857748 ], [ -0.272356209050335, 50.834464241958699 ], [ -0.273184129989558, 50.834479226449098 ], [ -0.276452235761476, 50.8345641563835 ], [ -0.277214119563229, 50.834539139099199 ], [ -0.27891344018962, 50.8344073369908 ], [ -0.27888988788342, 50.835261516356198 ], [ -0.28016523255702, 50.836002933773898 ], [ -0.27961618266647, 50.836233734944898 ], [ -0.2793462860328, 50.836622202102902 ], [ -0.278981740390362, 50.836567319239599 ], [ -0.277594085516812, 50.8376931240864 ], [ -0.27582953196543, 50.838389783222802 ], [ -0.275783514329503, 50.838335053160201 ], [ -0.275675864125673, 50.838102044814697 ], [ -0.274971394586598, 50.837981278146103 ], [ -0.274607403523629, 50.838907263801197 ], [ -0.272586479777122, 50.838659081995402 ], [ -0.27227566254048, 50.838927705751601 ] ] ] ] } },
{ "type": "Feature", "properties": { "lsoa21_code": "E01031370", "lsoa21_name": "Adur 001E" }, "geometry": { "type": "MultiPolygon", "coordinates": [ [ [ [ -0.254682592754504, 50.8417985934516 ], [ -0.250684020728398, 50.8414158124138 ], [ -0.249798068927305, 50.841589349581497 ], [ -0.24926994094532, 50.841391004268402 ], [ -0.248402265207143, 50.8415918786649 ], [ -0.247309431537552, 50.841225651008799 ], [ -0.244313233235564, 50.8411123955199 ], [ -0.243583456260291, 50.841069338345399 ], [ -0.243657262269754, 50.840851315479703 ], [ -0.244106582727258, 50.837955145071497 ], [ -0.244142428347141, 50.837443124670799 ], [ -0.248465010019101, 50.837588615227901 ], [ -0.248380275468268, 50.838254492647103 ], [ -0.248851025513489, 50.838269019718197 ], [ -0.249535570578133, 50.838889866556499 ], [ -0.24884369428771, 50.839321416813497 ], [ -0.249564682799282, 50.840102748647197 ], [ -0.252249823572948, 50.840164469336301 ], [ -0.252310489391578, 50.839458816535299 ], [ -0.255049366229178, 50.839805862468999 ], [ -0.254862208427921, 50.8406657113782 ], [ -0.25547854830523, 50.841001986753099 ], [ -0.255387613376805, 50.841826340213302 ], [ -0.254682592754504, 50.8417985934516 ] ] ] ] } },
{ "type": "Feature", "properties": { "lsoa21_code": "E01031371", "lsoa21_name": "Adur 004D" }, "geometry": { "type": "MultiPolygon", "coordinates": [ [ [ [ -0.249564682799282, 50.840102748647197 ], [ -0.24884369428771, 50.839321416813497 ], [ -0.249535570578133, 50.838889866556499 ], [ -0.248851025513489, 50.838269019718197 ], [ -0.248380275468268, 50.838254492647103 ], [ -0.248465010019101, 50.837588615227901 ], [ -0.248937215832275, 50.837616815810499 ], [ -0.24915446233432, 50.836611274952098 ], [ -0.250293515531422, 50.836759153307497 ], [ -0.251446921844077, 50.836908890280903 ], [ -0.251793778073498, 50.835084071183402 ], [ -0.252465541892039, 50.835114508967401 ], [ -0.252452920643977, 50.835168397371397 ], [ -0.252369434630057, 50.835421472028003 ], [ -0.253000758900897, 50.835622265904597 ], [ -0.252741180598385, 50.8365109672092 ], [ -0.253239355179271, 50.836543519044803 ], [ -0.252695568488203, 50.838909976165702 ], [ -0.253198857263166, 50.838816305807498 ], [ -0.253067002574943, 50.838555934231401 ], [ -0.253913705122668, 50.8381587730386 ], [ -0.254013807684201, 50.837736636149799 ], [ -0.256273783030549, 50.837652846547499 ], [ -0.257488409739879, 50.837930893420797 ], [ -0.257442948326677, 50.838388878156699 ], [ -0.256248057153647, 50.8383062015184 ], [ -0.256180374339062, 50.839234325507803 ], [ -0.256114648070167, 50.839549695416203 ], [ -0.255649459710367, 50.8394880651243 ], [ -0.255049366229178, 50.839805862468999 ], [ -0.252310489391578, 50.839458816535299 ], [ -0.252249823572948, 50.840164469336301 ], [ -0.249564682799282, 50.840102748647197 ] ] ] ] } },
{ "type": "Feature", "properties": { "lsoa21_code": "E01031372", "lsoa21_name": "Adur 004E" }, "geometry": { "type": "MultiPolygon", "coordinates": [ [ [ [ -0.255049366229178, 50.839805862468999 ], [ -0.255649459710367, 50.8394880651243 ], [ -0.256114648070167, 50.839549695416203 ], [ -0.256180374339062, 50.839234325507803 ], [ -0.256248057153647, 50.8383062015184 ], [ -0.257442948326677, 50.838388878156699 ], [ -0.257488409739879, 50.837930893420797 ], [ -0.256273783030549, 50.837652846547499 ], [ -0.254013807684201, 50.837736636149799 ], [ -0.253913705122668, 50.8381587730386 ], [ -0.253067002574943, 50.838555934231401 ], [ -0.253198857263166, 50.838816305807498 ], [ -0.252695568488203, 50.838909976165702 ], [ -0.253239355179271, 50.836543519044803 ], [ -0.252741180598385, 50.8365109672092 ], [ -0.253000758900897, 50.835622265904597 ], [ -0.252369434630057, 50.835421472028003 ], [ -0.252452920643977, 50.835168397371397 ], [ -0.252465541892039, 50.835114508967401 ], [ -0.253009795832535, 50.833516134193196 ], [ -0.255709794429466, 50.833875212720997 ], [ -0.255029496278193, 50.835462669822299 ], [ -0.258723990483627, 50.835960836169903 ], [ -0.259031698963986, 50.836002325771098 ], [ -0.259171618664925, 50.8373098585284 ], [ -0.259169799729686, 50.837328591633899 ], [ -0.259028835329455, 50.840205698584001 ], [ -0.258664119453568, 50.841640218029397 ], [ -0.257959891650439, 50.8417363185604 ], [ -0.255387613376805, 50.841826340213302 ], [ -0.25547854830523, 50.841001986753099 ], [ -0.254862208427921, 50.8406657113782 ], [ -0.255049366229178, 50.839805862468999 ] ] ] ] } },
{ "type": "Feature", "properties": { "lsoa21_code": "E01031373", "lsoa21_name": "Adur 004F" }, "geometry": { "type": "MultiPolygon", "coordinates": [ [ [ [ -0.245147659911178, 50.828836390918902 ], [ -0.245083981933369, 50.828101517431698 ], [ -0.246267346283523, 50.826217650673001 ], [ -0.245700858051783, 50.8272625513412 ], [ -0.245149340512124, 50.828221371128997 ], [ -0.246023211878374, 50.828400230271797 ], [ -0.246410685290931, 50.827990023047498 ], [ -0.246463699407212, 50.828001177211803 ], [ -0.246473800130505, 50.827990335333503 ], [ -0.246080512166948, 50.8284689262412 ], [ -0.245785386136901, 50.828652005245701 ], [ -0.245147659911178, 50.828836390918902 ] ] ], [ [ [ -0.248640801371385, 50.835483620690702 ], [ -0.248724880261359, 50.835049412215703 ], [ -0.247764525131281, 50.835142009019101 ], [ -0.247930901651407, 50.834824192474798 ], [ -0.247522196639848, 50.8347868953716 ], [ -0.247012260459171, 50.834958792326702 ], [ -0.247140732462667, 50.834690307613997 ], [ -0.246300112037005, 50.834390999083503 ], [ -0.246162826594896, 50.834711134549501 ], [ -0.244951651452725, 50.8345484073077 ], [ -0.244714193237641, 50.8341150237896 ], [ -0.245254724938652, 50.833758578132702 ], [ -0.245078192236869, 50.833319198455797 ], [ -0.244610668467715, 50.833277220387302 ], [ -0.244433556261078, 50.833832431899701 ], [ -0.244366654308462, 50.834133495124398 ], [ -0.242757818372961, 50.8342902173802 ], [ -0.241666262617286, 50.8337404613278 ], [ -0.240381252232133, 50.833666912778803 ], [ -0.240138307780883, 50.833211692370803 ], [ -0.239990368265571, 50.832796919297003 ], [ -0.24055040459457, 50.832038759090899 ], [ -0.243015191614363, 50.831741548000799 ], [ -0.242842884875473, 50.831191121299497 ], [ -0.245329210116535, 50.8309314311484 ], [ -0.245309485776057, 50.830703829421999 ], [ -0.247227574381385, 50.830669489296 ], [ -0.248700681132054, 50.830011387766397 ], [ -0.248012146311376, 50.829101394916897 ], [ -0.249615350057834, 50.830491048842298 ], [ -0.252034431710467, 50.831095266016099 ], [ -0.252086136577499, 50.831108179628401 ], [ -0.251602486425011, 50.8319406168253 ], [ -0.251086028223511, 50.831901457155901 ], [ -0.250458193483024, 50.833072575190897 ], [ -0.253009795832535, 50.833516134193196 ], [ -0.252465541892039, 50.835114508967401 ], [ -0.251793778073498, 50.835084071183402 ], [ -0.251446921844077, 50.836908890280903 ], [ -0.250293515531422, 50.836759153307497 ], [ -0.24915446233432, 50.836611274952098 ], [ -0.249330918437038, 50.8355770534207 ], [ -0.248640801371385, 50.835483620690702 ] ] ] ] } },
{ "type": "Feature", "properties": { "lsoa21_code": "E01031374", "lsoa21_name": "Adur 001F" }, "geometry": { "type": "MultiPolygon", "coordinates": [ [ [ [ -0.231895122918047, 50.839851005790898 ], [ -0.234038626401294, 50.838521903047798 ], [ -0.234344119687279, 50.837212855822699 ], [ -0.2343473460581, 50.836760769542401 ], [ -0.236288073978605, 50.836369440558897 ], [ -0.237079396818739, 50.837215564471997 ], [ -0.236732887596539, 50.838241862210701 ], [ -0.237354316150873, 50.838356586881901 ], [ -0.237340596075911, 50.838527749204403 ], [ -0.238275556871166, 50.838641078162503 ], [ -0.238086357418014, 50.837831333719699 ], [ -0.23917616034379, 50.837667989818598 ], [ -0.239696139434087, 50.837441751359599 ], [ -0.240216338005163, 50.837715943338701 ], [ -0.242006434188629, 50.837622187465101 ], [ -0.24299055208244, 50.837708051568299 ], [ -0.242644272595407, 50.837493346684703 ], [ -0.244148751755284, 50.8372917977456 ], [ -0.244142428347141, 50.837443124670799 ], [ -0.244106582727258, 50.837955145071497 ], [ -0.243657262269754, 50.840851315479703 ], [ -0.243583456260291, 50.841069338345399 ], [ -0.23840542877683, 50.840772048124897 ], [ -0.237707736450859, 50.840691594020498 ], [ -0.234624966803431, 50.840309156413397 ], [ -0.234339270315301, 50.8402728369784 ], [ -0.231895122918047, 50.839851005790898 ] ] ] ] } },
{ "type": "Feature", "properties": { "lsoa21_code": "E01031375", "lsoa21_name": "Adur 004G" }, "geometry": { "type": "MultiPolygon", "coordinates": [ [ [ [ -0.236732887596539, 50.838241862210701 ], [ -0.237079396818739, 50.837215564471997 ], [ -0.236288073978605, 50.836369440558897 ], [ -0.2343473460581, 50.836760769542401 ], [ -0.234347935324413, 50.836674018951399 ], [ -0.234596081260278, 50.834757937879097 ], [ -0.235187921819979, 50.834281368316297 ], [ -0.234942921798827, 50.833611951673603 ], [ -0.235602976943451, 50.832631129305099 ], [ -0.238673452019704, 50.832276840005001 ], [ -0.239065389703827, 50.831264603146202 ], [ -0.237848687845509, 50.831226007216898 ], [ -0.237710172792089, 50.830530016342401 ], [ -0.237122951890272, 50.830358979437499 ], [ -0.237399127034206, 50.8290465692764 ], [ -0.238108266880884, 50.828905959829399 ], [ -0.238036231826871, 50.827993169558603 ], [ -0.240818472239397, 50.828354939150898 ], [ -0.241639368031398, 50.828064137736 ], [ -0.245003178735654, 50.828230145773901 ], [ -0.245083981933369, 50.828101517431698 ], [ -0.245147659911178, 50.828836390918902 ], [ -0.243952145757196, 50.829182036077597 ], [ -0.239129761009432, 50.829415150719598 ], [ -0.238770252437349, 50.829188955409798 ], [ -0.237986981734316, 50.829418609436999 ], [ -0.237977162593876, 50.829707493262298 ], [ -0.239199027594781, 50.829699957424097 ], [ -0.238741039453581, 50.829964650806197 ], [ -0.239770453130112, 50.830043132456098 ], [ -0.238199446127543, 50.8301653151902 ], [ -0.238154387433501, 50.830500801879502 ], [ -0.241606213109354, 50.830770041797798 ], [ -0.245309485776057, 50.830703829421999 ], [ -0.245329210116535, 50.8309314311484 ], [ -0.242842884875473, 50.831191121299497 ], [ -0.243015191614363, 50.831741548000799 ], [ -0.24055040459457, 50.832038759090899 ], [ -0.239990368265571, 50.832796919297003 ], [ -0.240138307780883, 50.833211692370803 ], [ -0.240381252232133, 50.833666912778803 ], [ -0.241666262617286, 50.8337404613278 ], [ -0.242757818372961, 50.8342902173802 ], [ -0.244366654308462, 50.834133495124398 ], [ -0.244433556261078, 50.833832431899701 ], [ -0.244610668467715, 50.833277220387302 ], [ -0.245078192236869, 50.833319198455797 ], [ -0.245254724938652, 50.833758578132702 ], [ -0.244714193237641, 50.8341150237896 ], [ -0.244951651452725, 50.8345484073077 ], [ -0.246162826594896, 50.834711134549501 ], [ -0.246300112037005, 50.834390999083503 ], [ -0.247140732462667, 50.834690307613997 ], [ -0.247012260459171, 50.834958792326702 ], [ -0.247522196639848, 50.8347868953716 ], [ -0.247930901651407, 50.834824192474798 ], [ -0.247764525131281, 50.835142009019101 ], [ -0.248724880261359, 50.835049412215703 ], [ -0.248640801371385, 50.835483620690702 ], [ -0.249330918437038, 50.8355770534207 ], [ -0.24915446233432, 50.836611274952098 ], [ -0.248937215832275, 50.837616815810499 ], [ -0.248465010019101, 50.837588615227901 ], [ -0.244142428347141, 50.837443124670799 ], [ -0.244148751755284, 50.8372917977456 ], [ -0.242644272595407, 50.837493346684703 ], [ -0.24299055208244, 50.837708051568299 ], [ -0.242006434188629, 50.837622187465101 ], [ -0.240216338005163, 50.837715943338701 ], [ -0.239696139434087, 50.837441751359599 ], [ -0.23917616034379, 50.837667989818598 ], [ -0.238086357418014, 50.837831333719699 ], [ -0.238275556871166, 50.838641078162503 ], [ -0.237340596075911, 50.838527749204403 ], [ -0.237354316150873, 50.838356586881901 ], [ -0.236732887596539, 50.838241862210701 ] ] ] ] } },
{ "type": "Feature", "properties": { "lsoa21_code": "E01031376", "lsoa21_name": "Adur 007C" }, "geometry": { "type": "MultiPolygon", "coordinates": [ [ [ [ -0.303806359918984, 50.8268946924752 ], [ -0.303585607005328, 50.826462456810603 ], [ -0.302339435288848, 50.826733037191303 ], [ -0.301901744848797, 50.825888583627801 ], [ -0.303642950293958, 50.825244461862503 ], [ -0.303178511622061, 50.824716303531901 ], [ -0.302068855744691, 50.824960374500698 ], [ -0.301815260471227, 50.824615532895898 ], [ -0.300657780350384, 50.823415091714303 ], [ -0.303199320219231, 50.823202667371497 ], [ -0.309271208213639, 50.821786256244899 ], [ -0.312384665285165, 50.821299448239699 ], [ -0.316221649900167, 50.820699382456198 ], [ -0.316436116248298, 50.821898416168104 ], [ -0.316844479420355, 50.822029216851703 ], [ -0.31695111273003, 50.822335585782398 ], [ -0.316955303377053, 50.822656868177098 ], [ -0.316216511802988, 50.822618818367999 ], [ -0.315811868436648, 50.8229638987508 ], [ -0.315312879543358, 50.824767723801997 ], [ -0.314929465893222, 50.824393733162097 ], [ -0.315100528120905, 50.823666787378102 ], [ -0.314424836751778, 50.823929040359403 ], [ -0.314432153453524, 50.824317877597103 ], [ -0.31493904963617, 50.824520941032802 ], [ -0.314563050762202, 50.824766314336699 ], [ -0.312169383910275, 50.824479185439401 ], [ -0.311240452646503, 50.824596181237702 ], [ -0.311257109890498, 50.825824587036799 ], [ -0.310781929355425, 50.8265708222443 ], [ -0.311674616478738, 50.827490551703001 ], [ -0.3124980351632, 50.828016263622601 ], [ -0.312094574601728, 50.828393167976699 ], [ -0.312572391334299, 50.828849054886 ], [ -0.304776786831036, 50.830168172653003 ], [ -0.301455397740883, 50.830726099500197 ], [ -0.30007624771728, 50.827946623763502 ], [ -0.302680136505033, 50.827408936124101 ], [ -0.302574785823511, 50.8271825749257 ], [ -0.303806359918984, 50.8268946924752 ] ] ] ] } },
{ "type": "Feature", "properties": { "lsoa21_code": "E01031377", "lsoa21_name": "Adur 008D" }, "geometry": { "type": "MultiPolygon", "coordinates": [ [ [ [ -0.317849879401405, 50.825106477137901 ], [ -0.318674134139304, 50.824197554305599 ], [ -0.317452161482138, 50.823722484921397 ], [ -0.317760195524744, 50.823504969184597 ], [ -0.319152192486009, 50.8237599521227 ], [ -0.319330477093918, 50.823371183701198 ], [ -0.318605763641037, 50.823321507679601 ], [ -0.317878555243385, 50.822973520451299 ], [ -0.317729103874953, 50.822436871819498 ], [ -0.31695111273003, 50.822335585782398 ], [ -0.316844479420355, 50.822029216851703 ], [ -0.316436116248298, 50.821898416168104 ], [ -0.316221649900167, 50.820699382456198 ], [ -0.320370442723926, 50.820050389890902 ], [ -0.323878983663838, 50.819501420514797 ], [ -0.324042640517366, 50.819477881582003 ], [ -0.32405555267177, 50.819476024538801 ], [ -0.3240657510994, 50.820053668938698 ], [ -0.324634980138777, 50.821091241450901 ], [ -0.325561822112711, 50.821179645834398 ], [ -0.324441963315153, 50.8229814405585 ], [ -0.323637916250403, 50.8244362922185 ], [ -0.323040657023123, 50.824981381956597 ], [ -0.322563034931878, 50.824934956350198 ], [ -0.322489243958703, 50.825487375994904 ], [ -0.323048404947535, 50.826012210651498 ], [ -0.322740105894364, 50.827120397789798 ], [ -0.322224450040807, 50.827207591939903 ], [ -0.322160576913101, 50.826507635800901 ], [ -0.322938866790295, 50.826104629158301 ], [ -0.322309576223148, 50.825669206969401 ], [ -0.317884405254357, 50.825116421545999 ], [ -0.317849879401405, 50.825106477137901 ] ] ] ] } },
{ "type": "Feature", "properties": { "lsoa21_code": "E01031378", "lsoa21_name": "Adur 007D" }, "geometry": { "type": "MultiPolygon", "coordinates": [ [ [ [ -0.291403641412973, 50.826808222932499 ], [ -0.290642762473739, 50.8263321370897 ], [ -0.290506558283645, 50.825639424506498 ], [ -0.290538280866508, 50.825068436681697 ], [ -0.290564133967248, 50.8250652601849 ], [ -0.291341241053099, 50.824935188969803 ], [ -0.291468526051295, 50.824622370040998 ], [ -0.29404665281321, 50.824448812756501 ], [ -0.296862919869547, 50.823748717460397 ], [ -0.296963189191739, 50.823723789957299 ], [ -0.297647972373899, 50.823666582450599 ], [ -0.300657780350384, 50.823415091714303 ], [ -0.301815260471227, 50.824615532895898 ], [ -0.302068855744691, 50.824960374500698 ], [ -0.303178511622061, 50.824716303531901 ], [ -0.303642950293958, 50.825244461862503 ], [ -0.301901744848797, 50.825888583627801 ], [ -0.302339435288848, 50.826733037191303 ], [ -0.303585607005328, 50.826462456810603 ], [ -0.303806359918984, 50.8268946924752 ], [ -0.302574785823511, 50.8271825749257 ], [ -0.302680136505033, 50.827408936124101 ], [ -0.30007624771728, 50.827946623763502 ], [ -0.301455397740883, 50.830726099500197 ], [ -0.285812076396181, 50.833345431418302 ], [ -0.287047245470393, 50.8311879927642 ], [ -0.286623060094653, 50.828932651713401 ], [ -0.287488125624314, 50.828491693326903 ], [ -0.288927360541166, 50.827840328439102 ], [ -0.291403641412973, 50.826808222932499 ] ] ] ] } },
{ "type": "Feature", "properties": { "lsoa21_code": "E01031379", "lsoa21_name": "Adur 008E" }, "geometry": { "type": "MultiPolygon", "coordinates": [ [ [ [ -0.311257109890498, 50.825824587036799 ], [ -0.311240452646503, 50.824596181237702 ], [ -0.312169383910275, 50.824479185439401 ], [ -0.314563050762202, 50.824766314336699 ], [ -0.31493904963617, 50.824520941032802 ], [ -0.314432153453524, 50.824317877597103 ], [ -0.314424836751778, 50.823929040359403 ], [ -0.315100528120905, 50.823666787378102 ], [ -0.314929465893222, 50.824393733162097 ], [ -0.315312879543358, 50.824767723801997 ], [ -0.315811868436648, 50.8229638987508 ], [ -0.316216511802988, 50.822618818367999 ], [ -0.316955303377053, 50.822656868177098 ], [ -0.31695111273003, 50.822335585782398 ], [ -0.317729103874953, 50.822436871819498 ], [ -0.317878555243385, 50.822973520451299 ], [ -0.318605763641037, 50.823321507679601 ], [ -0.319330477093918, 50.823371183701198 ], [ -0.319152192486009, 50.8237599521227 ], [ -0.317760195524744, 50.823504969184597 ], [ -0.317452161482138, 50.823722484921397 ], [ -0.318674134139304, 50.824197554305599 ], [ -0.317849879401405, 50.825106477137901 ], [ -0.317884405254357, 50.825116421545999 ], [ -0.322309576223148, 50.825669206969401 ], [ -0.322938866790295, 50.826104629158301 ], [ -0.322160576913101, 50.826507635800901 ], [ -0.322224450040807, 50.827207591939903 ], [ -0.320416532148334, 50.827515381074399 ], [ -0.319913415425702, 50.8276002485999 ], [ -0.315562664372778, 50.828340841350503 ], [ -0.313733643061141, 50.828655660983301 ], [ -0.312572391334299, 50.828849054886 ], [ -0.312094574601728, 50.828393167976699 ], [ -0.3124980351632, 50.828016263622601 ], [ -0.311674616478738, 50.827490551703001 ], [ -0.310781929355425, 50.8265708222443 ], [ -0.311257109890498, 50.825824587036799 ] ] ] ] } }
]
}
